,city,confidence,country,id,imageId,imageUrl,inscale,isJamUnifiedAlert,location,magvar,nComments,nImages,nThumbsUp,nearBy,pubMillis,reliability,reportBy,reportByActiveGroupIcon,reportByActiveGroupName,reportDescription,reportMood,reportRating,roadType,showFacebookPic,speed,street,subtype,type,uuid,wazeData,datetime,lon,lat,thumbs_up,thumbs_down,comments,geometry
0,Jurong West,1,SN,alert-1638694993/c54e9770-d858-30e9-9429-1908d8d1658d,,,False,False,"{'x': 103.702605, 'y': 1.35154}",136,0,0,2,,1563852850000,7,,,,,0,3,2.0,False,0,Jln Bahar,HAZARD_ON_ROAD_CONSTRUCTION,HAZARD,c54e9770-d858-30e9-9429-1908d8d1658d,"world,103.702605,1.35154,c54e9770-d858-30e9-9429-1908d8d1658d,1638694993",2019-07-23 03:34:10,103.702605,1.35154,2,0,2,POINT (103.702605 1.35154)
1,Jurong,2,SN,alert-1644792791/f15b7004-f4f4-3d4f-b11b-02c6cde77b58,,,False,False,"{'x': 103.708187, 'y': 1.329872}",175,0,0,6,,1563856931000,10,,,,,38,3,,False,0,Jln Boon Lay,HAZARD_ON_ROAD_CONSTRUCTION,HAZARD,f15b7004-f4f4-3d4f-b11b-02c6cde77b58,"world,103.708187,1.329872,f15b7004-f4f4-3d4f-b11b-02c6cde77b58,1644792791",2019-07-23 04:42:11,103.708187,1.329872,6,0,6,POINT (103.708187 1.329872)
2,Jurong West,0,SN,alert-1641312922/dfa79ede-5dce-3556-9f46-7729ba5f056b,,,False,False,"{'x': 103.704728, 'y': 1.346929}",245,0,0,0,,1563857860000,5,,,,,49,2,2.0,False,0,Jurong West Ave 4,HAZARD_ON_ROAD_CONSTRUCTION,HAZARD,dfa79ede-5dce-3556-9f46-7729ba5f056b,"world,103.704728,1.346929,dfa79ede-5dce-3556-9f46-7729ba5f056b,1641312922",2019-07-23 04:57:40,103.704728,1.346929,0,0,0,POINT (103.704728 1.346929)
7,Jurong,0,SN,alert-1654783356/4fde415c-8604-3279-8205-d51efbc2f18e,,,False,False,"{'x': 103.69845, 'y': 1.328129}",0,0,0,1,,1563862463000,6,,,,,0,1,1.0,False,0,Soon Lee Rd,HAZARD_ON_ROAD_CONSTRUCTION,HAZARD,4fde415c-8604-3279-8205-d51efbc2f18e,"world,103.69845,1.328129,4fde415c-8604-3279-8205-d51efbc2f18e,1654783356",2019-07-23 06:14:23,103.69845,1.328129,1,0,1,POINT (103.69845 1.328129)
8,Jurong West,0,SN,alert-1656472737/ef762588-87a0-372d-90a3-7aec9eefe133,,,False,False,"{'x': 103.705989, 'y': 1.347656}",58,0,0,1,,1563863337000,6,,,,,24,1,,False,0,Jurong West Ave 2,HAZARD_ON_ROAD_CONSTRUCTION,HAZARD,ef762588-87a0-372d-90a3-7aec9eefe133,"world,103.705989,1.347656,ef762588-87a0-372d-90a3-7aec9eefe133,1656472737",2019-07-23 06:28:57,103.705989,1.347656,1,0,1,POINT (103.705989 1.347656)
9,Jurong West,0,SN,alert-1647305528/493520a8-ac79-3be0-9a92-b9b5ebe02d07,,,False,False,"{'x': 103.702145, 'y': 1.346113}",146,0,0,0,,1563863936000,5,,,,,10,2,1.0,False,0,Jurong West St 75,HAZARD_ON_ROAD_CONSTRUCTION,HAZARD,493520a8-ac79-3be0-9a92-b9b5ebe02d07,"world,103.702145,1.346113,493520a8-ac79-3be0-9a92-b9b5ebe02d07,1647305528",2019-07-23 06:38:56,103.702145,1.346113,0,0,0,POINT (103.702145 1.346113)
10,Tuas,0,SN,alert-1640186291/9c8188d3-b49c-3916-99a9-ce7844873001,,,False,False,"{'x': 103.638783, 'y': 1.346691}",133,0,0,0,,1563865857000,5,,,,,24,3,2.0,False,0,Jln Ahmad Ibrahim,HAZARD_ON_ROAD_CONSTRUCTION,HAZARD,9c8188d3-b49c-3916-99a9-ce7844873001,"world,103.638783,1.346691,9c8188d3-b49c-3916-99a9-ce7844873001,1640186291",2019-07-23 07:10:57,103.638783,1.346691,0,0,0,POINT (103.638783 1.346691)
11,Tuas,0,SN,alert-1642544830/20d58014-78b4-3f3d-8410-53e23a76a170,,,False,False,"{'x': 103.653616, 'y': 1.31514}",133,0,0,0,,1563868826000,5,,,,,10,2,1.0,False,0,Tuas Basin Link,JAM_MODERATE_TRAFFIC,JAM,20d58014-78b4-3f3d-8410-53e23a76a170,"world,103.653616,1.31514,20d58014-78b4-3f3d-8410-53e23a76a170,1642544830",2019-07-23 08:00:26,103.653616,1.31514,0,0,0,POINT (103.653616 1.31514)
12,Buona Vista,0,SN,alert-1654780346/3bb432da-106e-3b7c-a72b-415e08488e6e,,,False,False,"{'x': 103.788534, 'y': 1.305923}",233,0,0,1,,1563849031000,6,,,,,50,2,1.0,False,0,Rochester Drive,HAZARD_ON_ROAD_CONSTRUCTION,HAZARD,3bb432da-106e-3b7c-a72b-415e08488e6e,"world,103.788534,1.305923,3bb432da-106e-3b7c-a72b-415e08488e6e,1654780346",2019-07-23 02:30:31,103.788534,1.305923,1,0,1,POINT (103.788534 1.305923)
13,Clementi,2,SN,alert-1654160985/f0341c53-ea25-3412-b0fb-faaf475d98a7,,,False,False,"{'x': 103.766347, 'y': 1.312607}",275,0,0,4,,1563850431000,9,,,,,10,3,1.0,False,0,,HAZARD_ON_ROAD_CONSTRUCTION,HAZARD,f0341c53-ea25-3412-b0fb-faaf475d98a7,"world,103.766347,1.312607,f0341c53-ea25-3412-b0fb-faaf475d98a7,1654160985",2019-07-23 02:53:51,103.766347,1.312607,4,0,4,POINT (103.766347 1.312607)
14,Holland,2,SN,alert-1645574530/aabaf6ea-efc9-355b-a081-fd2a091f1e00,,,False,False,"{'x': 103.795881, 'y': 1.310907}",191,0,0,5,,1563850538000,10,,,,,8,3,2.0,False,0,Holland Ave,HAZARD_ON_ROAD_CONSTRUCTION,HAZARD,aabaf6ea-efc9-355b-a081-fd2a091f1e00,"world,103.795881,1.310907,aabaf6ea-efc9-355b-a081-fd2a091f1e00,1645574530",2019-07-23 02:55:38,103.795881,1.310907,5,0,5,POINT (103.795881 1.310907)
15,Buona Vista,0,SN,alert-1635023903/50a95ccd-1246-3709-b1a2-78a523e25f0a,,,False,False,"{'x': 103.788571, 'y': 1.299281}",22,0,0,0,,1563854314000,6,,,,,8,3,1.0,False,0,Fusionopolis Way,HAZARD_ON_ROAD_CONSTRUCTION,HAZARD,50a95ccd-1246-3709-b1a2-78a523e25f0a,"world,103.788571,1.299281,50a95ccd-1246-3709-b1a2-78a523e25f0a,1635023903",2019-07-23 03:58:34,103.788571,1.299281,0,0,0,POINT (103.788571 1.299281)
16,Buona Vista,0,SN,alert-1642741930/c6eabcd1-8fb2-3b22-a396-916279b1eedf,,,False,False,"{'x': 103.778348, 'y': 1.307207}",294,0,0,1,,1563857329000,6,CaptainJawSpeady,,,,10,3,1.0,False,0,Dover Rd,HAZARD_ON_ROAD_CONSTRUCTION,HAZARD,c6eabcd1-8fb2-3b22-a396-916279b1eedf,"world,103.778348,1.307207,c6eabcd1-8fb2-3b22-a396-916279b1eedf,1642741930",2019-07-23 04:48:49,103.778348,1.307207,1,0,1,POINT (103.778348 1.307207)
17,Holland,1,SN,alert-1637503752/7c1a4fb8-7a6d-3303-80b4-273a58e0e3d3,,,False,False,"{'x': 103.795166, 'y': 1.312177}",103,0,0,2,,1563863289000,7,,,,,50,2,2.0,False,0,Holland Rd,HAZARD_ON_ROAD_CONSTRUCTION,HAZARD,7c1a4fb8-7a6d-3303-80b4-273a58e0e3d3,"world,103.795166,1.312177,7c1a4fb8-7a6d-3303-80b4-273a58e0e3d3,1637503752",2019-07-23 06:28:09,103.795166,1.312177,2,0,2,POINT (103.795166 1.312177)
18,Buona Vista,0,SN,alert-1656394077/d74ecd2f-541a-3513-8b2f-6a20bd0d1bcf,,,False,False,"{'x': 103.782608, 'y': 1.302748}",324,0,0,0,,1563868103000,5,,,,,10,2,1.0,False,0,Dover Rd,JAM_MODERATE_TRAFFIC,JAM,d74ecd2f-541a-3513-8b2f-6a20bd0d1bcf,"world,103.782608,1.302748,d74ecd2f-541a-3513-8b2f-6a20bd0d1bcf,1656394077",2019-07-23 07:48:23,103.782608,1.302748,0,0,0,POINT (103.782608 1.302748)
19,Clementi,0,SN,alert-1645578510/e399de93-5d6b-3430-9fd9-a2fc2011fe90,,,False,False,"{'x': 103.765538, 'y': 1.314031}",334,0,0,0,,1563868710000,5,,,,,50,4,2.0,False,0,Commonwealth Ave West,HAZARD_ON_ROAD_CONSTRUCTION,HAZARD,e399de93-5d6b-3430-9fd9-a2fc2011fe90,"world,103.765538,1.314031,e399de93-5d6b-3430-9fd9-a2fc2011fe90,1645578510",2019-07-23 07:58:30,103.765538,1.314031,0,0,0,POINT (103.765538 1.314031)
20,West Coast,2,SN,alert-1658973654/0092eaeb-0f34-3e0d-a7cc-b0d906caba2e,,,False,False,"{'x': 103.759539, 'y': 1.309924}",312,1,0,4,,1563846091000,10,,,,,50,1,2.0,False,0,West Coast Rd,HAZARD_ON_ROAD_CONSTRUCTION,HAZARD,0092eaeb-0f34-3e0d-a7cc-b0d906caba2e,"world,103.759539,1.309924,0092eaeb-0f34-3e0d-a7cc-b0d906caba2e,1658973654",2019-07-23 01:41:31,103.759539,1.309924,4,1,5,POINT (103.759539 1.309924)
21,Holland,0,SN,alert-1651761945/fe4131c6-c474-3f01-b1fc-dca4c356e0db,,,False,False,"{'x': 103.795599, 'y': 1.3101}",205,0,0,0,,1563846249000,5,ninjaman1ninja,,,,49,3,2.0,False,0,Holland Ave,HAZARD_ON_ROAD_CONSTRUCTION,HAZARD,fe4131c6-c474-3f01-b1fc-dca4c356e0db,"world,103.795599,1.3101,fe4131c6-c474-3f01-b1fc-dca4c356e0db,1651761945",2019-07-23 01:44:09,103.795599,1.3101,0,0,0,POINT (103.795599 1.3101)
22,Clementi,2,SN,alert-1652459637/52d427de-d3c8-34b7-982c-4fc3956dffca,,,False,False,"{'x': 103.771206, 'y': 1.316445}",255,0,0,5,,1563846552000,10,n1ck_lee,,,,24,5,2.0,False,0,Clementi Ave 2,HAZARD_ON_ROAD_CONSTRUCTION,HAZARD,52d427de-d3c8-34b7-982c-4fc3956dffca,"world,103.771206,1.316445,52d427de-d3c8-34b7-982c-4fc3956dffca,1652459637",2019-07-23 01:49:12,103.771206,1.316445,5,0,5,POINT (103.771206 1.316445)
23,West Coast,2,SN,alert-1640940031/7dd79325-b27a-315d-8dd3-20dfa737c301,,,False,False,"{'x': 103.768586, 'y': 1.293245}",36,0,0,6,,1563848550000,10,,,,,10,2,2.0,False,0,Clementi Rd,HAZARD_ON_ROAD_CONSTRUCTION,HAZARD,7dd79325-b27a-315d-8dd3-20dfa737c301,"world,103.768586,1.293245,7dd79325-b27a-315d-8dd3-20dfa737c301,1640940031",2019-07-23 02:22:30,103.768586,1.293245,6,0,6,POINT (103.768586 1.293245)
24,West Coast,2,SN,alert-1648720038/08ee977b-e8ca-360c-8be4-8a5f7dedec10,,,False,False,"{'x': 103.76973, 'y': 1.297783}",3,2,0,2,,1563848580000,9,,,,,10,2,2.0,False,0,Clementi Rd,HAZARD_ON_ROAD_CONSTRUCTION,HAZARD,08ee977b-e8ca-360c-8be4-8a5f7dedec10,"world,103.76973,1.297783,08ee977b-e8ca-360c-8be4-8a5f7dedec10,1648720038",2019-07-23 02:23:00,103.76973,1.297783,2,2,4,POINT (103.76973 1.297783)
25,,5,SN,alert-1640282641/e6d98648-af2b-3174-bea8-5eed71f57e65,,,False,False,"{'x': 103.831255, 'y': 1.271622}",49,2,0,19,Tanjong Pagar,1563849592000,10,ibrahimojiq,,,,46,2,4.0,False,0,to: MCE,HAZARD_ON_ROAD_CONSTRUCTION,HAZARD,e6d98648-af2b-3174-bea8-5eed71f57e65,"world,103.831255,1.271622,e6d98648-af2b-3174-bea8-5eed71f57e65,1640282641",2019-07-23 02:39:52,103.831255,1.271622,19,2,21,POINT (103.831255 1.271622)
26,,0,SN,alert-1652460597/7357e734-8be8-3d9b-a46e-f0c37c87e859,,,False,False,"{'x': 103.83185, 'y': 1.272131}",0,0,0,0,,1563851195000,5,,,,,50,1,,False,0,,HAZARD_ON_ROAD_CONSTRUCTION,HAZARD,7357e734-8be8-3d9b-a46e-f0c37c87e859,"world,103.83185,1.272131,7357e734-8be8-3d9b-a46e-f0c37c87e859,1652460597",2019-07-23 03:06:35,103.83185,1.272131,0,0,0,POINT (103.83185 1.272131)
27,Downtown,2,SN,alert-1641061601/c568fba9-82c4-3acc-b559-83f5af67210a,,,False,False,"{'x': 103.846964, 'y': 1.274372}",221,1,0,5,,1563854697000,10,,,,,49,1,2.0,False,0,Shenton Way,HAZARD_ON_ROAD_CONSTRUCTION,HAZARD,c568fba9-82c4-3acc-b559-83f5af67210a,"world,103.846964,1.274372,c568fba9-82c4-3acc-b559-83f5af67210a,1641061601",2019-07-23 04:04:57,103.846964,1.274372,5,1,6,POINT (103.846964 1.274372)
28,,0,SN,alert-1640154932/92027ce3-a530-3628-8770-154a52d67a4a,,,False,False,"{'x': 103.83204, 'y': 1.27228}",58,1,0,0,Tanjong Pagar,1563854868000,6,chromenuts,ufmnew1,UFM 100.3,,50,3,4.0,False,0,to: MCE,HAZARD_ON_ROAD_CONSTRUCTION,HAZARD,92027ce3-a530-3628-8770-154a52d67a4a,"world,103.83204,1.27228,92027ce3-a530-3628-8770-154a52d67a4a,1640154932",2019-07-23 04:07:48,103.83204,1.27228,0,1,1,POINT (103.83204 1.27228)
29,,0,SN,alert-1648236099/1d61cd14-c262-3d04-843f-c8d1adb1b15d,,,False,False,"{'x': 103.831596, 'y': 1.271914}",49,0,0,1,Tanjong Pagar,1563855470000,6,jorjerang,,,,46,2,4.0,False,0,to: MCE,HAZARD_ON_ROAD_CONSTRUCTION,HAZARD,1d61cd14-c262-3d04-843f-c8d1adb1b15d,"world,103.831596,1.271914,1d61cd14-c262-3d04-843f-c8d1adb1b15d,1648236099",2019-07-23 04:17:50,103.831596,1.271914,1,0,1,POINT (103.831596 1.271914)
30,Telok Blangah,0,SN,alert-1652106636/59c687e7-493a-34e1-937a-c9a247afb046,,,False,False,"{'x': 103.805034, 'y': 1.272353}",107,0,0,1,,1563867245000,7,andy9969,ufmnew1,UFM 100.3,,52,4,2.0,False,0,Telok Blangah Rd,HAZARD_ON_ROAD_CONSTRUCTION,HAZARD,59c687e7-493a-34e1-937a-c9a247afb046,"world,103.805034,1.272353,59c687e7-493a-34e1-937a-c9a247afb046,1652106636",2019-07-23 07:34:05,103.805034,1.272353,1,0,1,POINT (103.805034 1.272353)
31,Kallang,5,SN,alert-1654660446/03b95eac-952f-3c2b-aad3-56021af444ef,,,False,False,"{'x': 103.8673, 'y': 1.309457}",256,2,0,18,,1563850549000,10,tiredmummy,,,,20,3,2.0,False,0,Kallang Rd,HAZARD_ON_ROAD_CONSTRUCTION,HAZARD,03b95eac-952f-3c2b-aad3-56021af444ef,"world,103.8673,1.309457,03b95eac-952f-3c2b-aad3-56021af444ef,1654660446",2019-07-23 02:55:49,103.8673,1.309457,18,2,20,POINT (103.8673 1.309457)
32,Orchard,2,SN,alert-1636484312/1417b5fd-bc0b-3f48-9f88-820a5758aaee,,,False,False,"{'x': 103.823496, 'y': 1.303389}",179,0,0,4,,1563858241000,9,,,,,34,0,2.0,False,0,Grange Rd,HAZARD_ON_ROAD_CONSTRUCTION,HAZARD,1417b5fd-bc0b-3f48-9f88-820a5758aaee,"world,103.823496,1.303389,1417b5fd-bc0b-3f48-9f88-820a5758aaee,1636484312",2019-07-23 05:04:01,103.823496,1.303389,4,0,4,POINT (103.823496 1.303389)
33,Orchard,1,SN,alert-1655720854/e7bed10d-0100-3e8d-875a-9bbabdc6714a,,,False,False,"{'x': 103.823352, 'y': 1.302349}",3,1,0,3,,1563850687000,10,,,,,50,3,2.0,False,0,Grange Rd,HAZARD_ON_ROAD_CONSTRUCTION,HAZARD,e7bed10d-0100-3e8d-875a-9bbabdc6714a,"world,103.823352,1.302349,e7bed10d-0100-3e8d-875a-9bbabdc6714a,1655720854",2019-07-23 02:58:07,103.823352,1.302349,3,1,4,POINT (103.823352 1.302349)
34,Bukit Merah,0,SN,alert-1659934134/711e4ca3-7e6e-36f0-bce0-9ca5ab9dd997,,,False,False,"{'x': 103.836178, 'y': 1.276917}",230,0,0,1,,1563863377000,6,,,,,49,2,2.0,False,0,Kampong Bahru Rd,HAZARD_ON_ROAD_CONSTRUCTION,HAZARD,711e4ca3-7e6e-36f0-bce0-9ca5ab9dd997,"world,103.836178,1.276917,711e4ca3-7e6e-36f0-bce0-9ca5ab9dd997,1659934134",2019-07-23 06:29:37,103.836178,1.276917,1,0,1,POINT (103.836178 1.276917)
35,Kallang,2,SN,alert-1654660486/fae620d8-4950-3e93-a443-282f653cf6ac,,,False,False,"{'x': 103.865816, 'y': 1.304023}",233,0,0,4,,1563850744000,9,tiredmummy,,,,20,3,2.0,False,0,Beach Rd,HAZARD_ON_ROAD_CONSTRUCTION,HAZARD,fae620d8-4950-3e93-a443-282f653cf6ac,"world,103.865816,1.304023,fae620d8-4950-3e93-a443-282f653cf6ac,1654660486",2019-07-23 02:59:04,103.865816,1.304023,4,0,4,POINT (103.865816 1.304023)
36,Katong,1,SN,alert-1646201718/b677e53a-df20-350c-8056-767f916166c2,,,False,False,"{'x': 103.883669, 'y': 1.306769}",64,0,0,3,,1563845108000,9,,,,,24,3,2.0,False,0,Old Airport Rd,HAZARD_ON_ROAD_CONSTRUCTION,HAZARD,b677e53a-df20-350c-8056-767f916166c2,"world,103.883669,1.306769,b677e53a-df20-350c-8056-767f916166c2,1646201718",2019-07-23 01:25:08,103.883669,1.306769,3,0,3,POINT (103.883669 1.306769)
37,Orchard,2,SN,alert-1648738878/4b4e817c-1edb-3656-9d30-84dd055ddf1f,,,False,False,"{'x': 103.824939, 'y': 1.299895}",117,0,0,5,,1563841417000,10,,,,,49,5,2.0,False,0,Grange Rd,HAZARD_ON_ROAD_CONSTRUCTION,HAZARD,4b4e817c-1edb-3656-9d30-84dd055ddf1f,"world,103.824939,1.299895,4b4e817c-1edb-3656-9d30-84dd055ddf1f,1648738878",2019-07-23 00:23:37,103.824939,1.299895,5,0,5,POINT (103.824939 1.299895)
38,Bukit Merah,1,SN,alert-1652674158/eff05987-b260-3ffd-bde4-ec204b5e5c93,,,False,False,"{'x': 103.829378, 'y': 1.278855}",302,0,0,3,,1563863498000,9,,,,Left lane,49,2,2.0,False,0,Jalan Bukit Merah,HAZARD_ON_ROAD_CONSTRUCTION,HAZARD,eff05987-b260-3ffd-bde4-ec204b5e5c93,"world,103.829378,1.278855,eff05987-b260-3ffd-bde4-ec204b5e5c93,1652674158",2019-07-23 06:31:38,103.829378,1.278855,3,0,3,POINT (103.829378 1.278855)
39,Katong,4,SN,alert-1649921777/70ad8323-38a0-32db-9b50-66605c3ee95a,,,False,False,"{'x': 103.884911, 'y': 1.307372}",244,0,0,9,,1563845379000,10,,,,,24,3,2.0,False,0,Old Airport Rd,HAZARD_ON_ROAD_CONSTRUCTION,HAZARD,70ad8323-38a0-32db-9b50-66605c3ee95a,"world,103.884911,1.307372,70ad8323-38a0-32db-9b50-66605c3ee95a,1649921777",2019-07-23 01:29:39,103.884911,1.307372,9,0,9,POINT (103.884911 1.307372)
40,Orchard,0,SN,alert-1653162756/4d3ae578-3ade-3af2-9abb-5877c9bb3771,,,False,False,"{'x': 103.824192, 'y': 1.302728}",260,0,0,1,,1563851355000,7,,,,,24,3,2.0,False,0,Orchard Blvd,HAZARD_ON_ROAD_CONSTRUCTION,HAZARD,4d3ae578-3ade-3af2-9abb-5877c9bb3771,"world,103.824192,1.302728,4d3ae578-3ade-3af2-9abb-5877c9bb3771,1653162756",2019-07-23 03:09:15,103.824192,1.302728,1,0,1,POINT (103.824192 1.302728)
41,River Valley,4,SN,alert-1644834201/4cd08383-4218-3ab6-b0a2-8ec5884c74db,,,False,False,"{'x': 103.842998, 'y': 1.291845}",32,0,0,9,,1563863695000,10,,,,,49,2,2.0,False,0,Clemenceau Ave,HAZARD_ON_ROAD_CONSTRUCTION,HAZARD,4cd08383-4218-3ab6-b0a2-8ec5884c74db,"world,103.842998,1.291845,4cd08383-4218-3ab6-b0a2-8ec5884c74db,1644834201",2019-07-23 06:34:55,103.842998,1.291845,9,0,9,POINT (103.842998 1.291845)
42,Newton,0,SN,alert-1644833381/1e2aea11-1397-3616-82bf-3354d57d7d9c,,,False,False,"{'x': 103.841228, 'y': 1.30606}",359,0,0,1,,1563860151000,7,,,,,50,1,1.0,False,0,Cavenagh Rd,HAZARD_ON_ROAD_CONSTRUCTION,HAZARD,1e2aea11-1397-3616-82bf-3354d57d7d9c,"world,103.841228,1.30606,1e2aea11-1397-3616-82bf-3354d57d7d9c,1644833381",2019-07-23 05:35:51,103.841228,1.30606,1,0,1,POINT (103.841228 1.30606)
43,,0,SN,alert-1653482915/5db2d039-aaef-35ad-a59d-d7ab7d9d6960,,,False,False,"{'x': 103.82347, 'y': 1.303149}",0,0,0,1,,1563851645000,6,,,,,49,3,,False,0,,HAZARD_ON_ROAD_CONSTRUCTION,HAZARD,5db2d039-aaef-35ad-a59d-d7ab7d9d6960,"world,103.82347,1.303149,5db2d039-aaef-35ad-a59d-d7ab7d9d6960,1653482915",2019-07-23 03:14:05,103.82347,1.303149,1,0,1,POINT (103.82347 1.303149)
44,Telok Blangah,0,SN,alert-1639733243/ad3b32ac-9b41-310b-b838-a5ab59108ac0,,,False,False,"{'x': 103.810287, 'y': 1.281527}",100,0,0,1,,1563863830000,6,,,,,50,2,1.0,False,0,Depot Rd,HAZARD_ON_ROAD_CONSTRUCTION,HAZARD,ad3b32ac-9b41-310b-b838-a5ab59108ac0,"world,103.810287,1.281527,ad3b32ac-9b41-310b-b838-a5ab59108ac0,1639733243",2019-07-23 06:37:10,103.810287,1.281527,1,0,1,POINT (103.810287 1.281527)
45,Outram,1,SN,alert-1646593270/3ec336cb-7ada-3f31-8ffa-55014fd45867,,,False,False,"{'x': 103.833327, 'y': 1.289736}",349,0,0,3,,1563863922000,8,,,,,1,1,2.0,False,0,Zion Rd,HAZARD_ON_ROAD_CONSTRUCTION,HAZARD,3ec336cb-7ada-3f31-8ffa-55014fd45867,"world,103.833327,1.289736,3ec336cb-7ada-3f31-8ffa-55014fd45867,1646593270",2019-07-23 06:38:42,103.833327,1.289736,3,0,3,POINT (103.833327 1.289736)
46,Bukit Timah,5,SN,alert-1653161696/2b4dcc38-b12e-3247-a41e-f19165ffa8f3,,,False,False,"{'x': 103.836163, 'y': 1.316143}",318,3,0,22,,1563846082000,10,MazdaNinjaHappy,,,,48,3,2.0,False,0,Bukit Timah Rd,HAZARD_ON_ROAD_CONSTRUCTION,HAZARD,2b4dcc38-b12e-3247-a41e-f19165ffa8f3,"world,103.836163,1.316143,2b4dcc38-b12e-3247-a41e-f19165ffa8f3,1653161696",2019-07-23 01:41:22,103.836163,1.316143,22,3,25,POINT (103.836163 1.316143)
47,River Valley,0,SN,alert-1636485682/622693be-678c-3aa3-bdbe-9a8cd680f4ca,,,False,False,"{'x': 103.832659, 'y': 1.290242}",284,0,0,0,,1563864165000,5,ryanrawi,,,,50,3,2.0,False,0,Ganges Ave,HAZARD_ON_ROAD_CONSTRUCTION,HAZARD,622693be-678c-3aa3-bdbe-9a8cd680f4ca,"world,103.832659,1.290242,622693be-678c-3aa3-bdbe-9a8cd680f4ca,1636485682",2019-07-23 06:42:45,103.832659,1.290242,0,0,0,POINT (103.832659 1.290242)
48,River Valley,5,SN,alert-1651503137/b1dc3ba5-7e7e-33bf-a2a4-87d6c59ad248,,,False,False,"{'x': 103.82621, 'y': 1.290762}",181,0,0,20,,1563852199000,10,,,,,10,4,2.0,False,0,Delta Rd,HAZARD_ON_ROAD_CONSTRUCTION,HAZARD,b1dc3ba5-7e7e-33bf-a2a4-87d6c59ad248,"world,103.82621,1.290762,b1dc3ba5-7e7e-33bf-a2a4-87d6c59ad248,1651503137",2019-07-23 03:23:19,103.82621,1.290762,20,0,20,POINT (103.82621 1.290762)
49,Outram,2,SN,alert-1651765245/d25dc79a-c630-3c88-a3b6-7388463c8995,,,False,False,"{'x': 103.845655, 'y': 1.287078}",39,0,0,6,,1563861339000,10,andy9969,ufmnew1,UFM 100.3,,52,4,2.0,False,0,Eu Tong Sen St,HAZARD_ON_ROAD_CONSTRUCTION,HAZARD,d25dc79a-c630-3c88-a3b6-7388463c8995,"world,103.845655,1.287078,d25dc79a-c630-3c88-a3b6-7388463c8995,1651765245",2019-07-23 05:55:39,103.845655,1.287078,6,0,6,POINT (103.845655 1.287078)
50,Novena,3,SN,alert-1635481333/6cc7f146-f768-34dd-86f2-5e1402efe16b,,,False,False,"{'x': 103.845051, 'y': 1.31539}",350,0,0,6,,1563852803000,10,,,,,1,2,2.0,False,0,Thomson Rd,HAZARD_ON_ROAD_CONSTRUCTION,HAZARD,6cc7f146-f768-34dd-86f2-5e1402efe16b,"world,103.845051,1.31539,6cc7f146-f768-34dd-86f2-5e1402efe16b,1635481333",2019-07-23 03:33:23,103.845051,1.31539,6,0,6,POINT (103.845051 1.31539)
51,Bukit Merah,0,SN,alert-1648103598/7ed39dbe-78e2-37d8-bfec-28cf8a9fba23,,,False,False,"{'x': 103.815222, 'y': 1.290462}",18,0,0,0,,1563852998000,5,jasonlimjc,,,,8,2,1.0,False,0,Leng Kee Rd,HAZARD_ON_ROAD_CONSTRUCTION,HAZARD,7ed39dbe-78e2-37d8-bfec-28cf8a9fba23,"world,103.815222,1.290462,7ed39dbe-78e2-37d8-bfec-28cf8a9fba23,1648103598",2019-07-23 03:36:38,103.815222,1.290462,0,0,0,POINT (103.815222 1.290462)
52,Outram,0,SN,alert-1634426473/c416919e-15fa-3659-aa33-6d761270b28f,,,False,False,"{'x': 103.838923, 'y': 1.281272}",145,0,0,1,,1563864533000,6,,,,,24,0,2.0,False,0,Outram Rd,HAZARD_ON_ROAD_CONSTRUCTION,HAZARD,c416919e-15fa-3659-aa33-6d761270b28f,"world,103.838923,1.281272,c416919e-15fa-3659-aa33-6d761270b28f,1634426473",2019-07-23 06:48:53,103.838923,1.281272,1,0,1,POINT (103.838923 1.281272)
53,Bukit Timah,1,SN,alert-1652180037/c67fc63c-3e0b-319f-9dcc-a9f1043de66a,,,False,False,"{'x': 103.847909, 'y': 1.311498}",160,0,0,4,,1563846591000,10,,,,,49,3,2.0,False,0,Keng Lee Rd,HAZARD_ON_ROAD_CONSTRUCTION,HAZARD,c67fc63c-3e0b-319f-9dcc-a9f1043de66a,"world,103.847909,1.311498,c67fc63c-3e0b-319f-9dcc-a9f1043de66a,1652180037",2019-07-23 01:49:51,103.847909,1.311498,4,0,4,POINT (103.847909 1.311498)
54,Geylang,3,SN,alert-1642063320/5a4748e2-4e78-3265-946f-5db390af9e49,,,False,False,"{'x': 103.87926, 'y': 1.30983}",252,0,0,7,,1563853551000,10,,,,,1,4,2.0,False,0,Guillemard Rd,HAZARD_ON_ROAD_CONSTRUCTION,HAZARD,5a4748e2-4e78-3265-946f-5db390af9e49,"world,103.87926,1.30983,5a4748e2-4e78-3265-946f-5db390af9e49,1642063320",2019-07-23 03:45:51,103.87926,1.30983,7,0,7,POINT (103.87926 1.30983)
55,Rochor,1,SN,alert-1636402012/c19c97e0-4790-39eb-85dc-0302e80e1aa5,,,False,False,"{'x': 103.861523, 'y': 1.301177}",244,0,0,2,,1563846662000,7,,,,,46,2,2.0,False,0,Beach Rd,HAZARD_ON_ROAD_CONSTRUCTION,HAZARD,c19c97e0-4790-39eb-85dc-0302e80e1aa5,"world,103.861523,1.301177,c19c97e0-4790-39eb-85dc-0302e80e1aa5,1636402012",2019-07-23 01:51:02,103.861523,1.301177,2,0,2,POINT (103.861523 1.301177)
56,Bukit Timah,0,SN,alert-1638713733/6d432b52-3a37-3ff3-9c79-73308cc690dc,,,False,False,"{'x': 103.847913, 'y': 1.311487}",160,0,0,0,,1563846677000,5,SpeedyReyez,,,,49,2,2.0,False,0,Keng Lee Rd,HAZARD_ON_ROAD_CONSTRUCTION,HAZARD,6d432b52-3a37-3ff3-9c79-73308cc690dc,"world,103.847913,1.311487,6d432b52-3a37-3ff3-9c79-73308cc690dc,1638713733",2019-07-23 01:51:17,103.847913,1.311487,0,0,0,POINT (103.847913 1.311487)
57,Bukit Timah,2,SN,alert-1647265938/0dc0c8ed-ad81-3eb2-88b7-764b527b9fbe,,,False,False,"{'x': 103.838507, 'y': 1.313575}",318,1,0,3,,1563862276000,9,,,,,10,2,2.0,False,0,Bukit Timah Rd,HAZARD_ON_ROAD_CONSTRUCTION,HAZARD,0dc0c8ed-ad81-3eb2-88b7-764b527b9fbe,"world,103.838507,1.313575,0dc0c8ed-ad81-3eb2-88b7-764b527b9fbe,1647265938",2019-07-23 06:11:16,103.838507,1.313575,3,1,4,POINT (103.838507 1.313575)
58,Geylang,1,SN,alert-1640182381/affa467d-5ec0-37ae-af21-695cf9990595,,,False,False,"{'x': 103.878031, 'y': 1.317913}",256,0,0,2,,1563847170000,7,andy9969,ufmnew1,UFM 100.3,,52,4,1.0,False,0,Sims Drive,HAZARD_ON_ROAD_CONSTRUCTION,HAZARD,affa467d-5ec0-37ae-af21-695cf9990595,"world,103.878031,1.317913,affa467d-5ec0-37ae-af21-695cf9990595,1640182381",2019-07-23 01:59:30,103.878031,1.317913,2,0,2,POINT (103.878031 1.317913)
59,River Valley,3,SN,alert-1642399760/af83c09d-6562-3262-93c2-687aa7ab6c19,,,False,False,"{'x': 103.833854, 'y': 1.29619}",103,0,0,6,,1563847258000,10,,,,,50,1,2.0,False,0,River Valley Rd,HAZARD_ON_ROAD_CONSTRUCTION,HAZARD,af83c09d-6562-3262-93c2-687aa7ab6c19,"world,103.833854,1.29619,af83c09d-6562-3262-93c2-687aa7ab6c19,1642399760",2019-07-23 02:00:58,103.833854,1.29619,6,0,6,POINT (103.833854 1.29619)
60,River Valley,0,SN,alert-1652219767/064bbd79-d0fb-3b1a-84ee-0eec01c45365,,,False,False,"{'x': 103.837461, 'y': 1.295447}",159,0,0,2,,1563847309000,8,,,,,50,1,1.0,False,0,River Valley Close,HAZARD_ON_ROAD_CONSTRUCTION,HAZARD,064bbd79-d0fb-3b1a-84ee-0eec01c45365,"world,103.837461,1.295447,064bbd79-d0fb-3b1a-84ee-0eec01c45365,1652219767",2019-07-23 02:01:49,103.837461,1.295447,2,0,2,POINT (103.837461 1.295447)
61,Geylang,1,SN,alert-1635022413/a45b3a93-5e77-3aea-ba57-c8db38e0f74f,,,False,False,"{'x': 103.878, 'y': 1.317}",0,0,0,2,,1563847344000,7,andy9969,ufmnew1,UFM 100.3,,52,4,1.0,False,0,Sims Drive,HAZARD_ON_ROAD_CONSTRUCTION,HAZARD,a45b3a93-5e77-3aea-ba57-c8db38e0f74f,"world,103.878,1.317,a45b3a93-5e77-3aea-ba57-c8db38e0f74f,1635022413",2019-07-23 02:02:24,103.878,1.317,2,0,2,POINT (103.878 1.317)
62,Geylang,0,SN,alert-1655395177/8c17e9e2-a1d1-33d5-98a9-08b5cab56312,,,False,False,"{'x': 103.885232, 'y': 1.311129}",259,0,0,1,,1563854346000,7,,,,,49,4,2.0,False,0,Guillemard Rd,HAZARD_ON_ROAD_CONSTRUCTION,HAZARD,8c17e9e2-a1d1-33d5-98a9-08b5cab56312,"world,103.885232,1.311129,8c17e9e2-a1d1-33d5-98a9-08b5cab56312,1655395177",2019-07-23 03:59:06,103.885232,1.311129,1,0,1,POINT (103.885232 1.311129)
63,Kallang,2,SN,alert-1648102438/a0235a59-8cdb-3fe2-ad9e-d11e96648f87,,,False,False,"{'x': 103.862229, 'y': 1.306795}",228,0,0,5,,1563847432000,10,SLF8872Z,,,,14,2,2.0,False,0,Kallang Rd,HAZARD_ON_ROAD_CONSTRUCTION,HAZARD,a0235a59-8cdb-3fe2-ad9e-d11e96648f87,"world,103.862229,1.306795,a0235a59-8cdb-3fe2-ad9e-d11e96648f87,1648102438",2019-07-23 02:03:52,103.862229,1.306795,5,0,5,POINT (103.862229 1.306795)
64,Orchard,3,SN,alert-1655781584/c68109e7-d1f4-3c2f-9815-55a9e16431f8,,,False,False,"{'x': 103.827082, 'y': 1.299103}",281,0,0,8,,1563854732000,10,dragonblufly,,,,1,2,2.0,False,0,Grange Rd,HAZARD_ON_ROAD_CONSTRUCTION,HAZARD,c68109e7-d1f4-3c2f-9815-55a9e16431f8,"world,103.827082,1.299103,c68109e7-d1f4-3c2f-9815-55a9e16431f8,1655781584",2019-07-23 04:05:32,103.827082,1.299103,8,0,8,POINT (103.827082 1.299103)
65,Rochor,1,SN,alert-1648900088/674a971d-aa69-3da2-9208-f88b914eaa50,,,False,False,"{'x': 103.861256, 'y': 1.305903}",228,1,0,2,,1563847938000,8,,,,,1,2,2.0,False,0,Victoria St,HAZARD_ON_ROAD_CONSTRUCTION,HAZARD,674a971d-aa69-3da2-9208-f88b914eaa50,"world,103.861256,1.305903,674a971d-aa69-3da2-9208-f88b914eaa50,1648900088",2019-07-23 02:12:18,103.861256,1.305903,2,1,3,POINT (103.861256 1.305903)
66,Little India,0,SN,alert-1650273309/469fa8bc-b784-39b8-9047-b03d16c88eed,,,False,False,"{'x': 103.854926, 'y': 1.3048}",214,0,0,0,,1563867106000,6,,,,,50,0,2.0,False,0,Jln Besar,HAZARD_ON_ROAD_CONSTRUCTION,HAZARD,469fa8bc-b784-39b8-9047-b03d16c88eed,"world,103.854926,1.3048,469fa8bc-b784-39b8-9047-b03d16c88eed,1650273309",2019-07-23 07:31:46,103.854926,1.3048,0,0,0,POINT (103.854926 1.3048)
67,Rochor,0,SN,alert-1655445674/46f5a4f4-8624-334e-b5de-eef56736f79f,,,False,False,"{'x': 103.85625, 'y': 1.301202}",41,0,0,2,,1563862754000,8,,,,,50,3,2.0,False,0,Victoria St,HAZARD_ON_ROAD_CONSTRUCTION,HAZARD,46f5a4f4-8624-334e-b5de-eef56736f79f,"world,103.85625,1.301202,46f5a4f4-8624-334e-b5de-eef56736f79f,1655445674",2019-07-23 06:19:14,103.85625,1.301202,2,0,2,POINT (103.85625 1.301202)
68,Newton,1,SN,alert-1641393922/61abe31d-150c-3bb4-a85a-4ee673fde21b,,,False,False,"{'x': 103.838752, 'y': 1.313077}",53,0,0,2,,1563867393000,7,Vincsin17,,,,49,5,2.0,False,0,,HAZARD_ON_ROAD_CONSTRUCTION,HAZARD,61abe31d-150c-3bb4-a85a-4ee673fde21b,"world,103.838752,1.313077,61abe31d-150c-3bb4-a85a-4ee673fde21b,1641393922",2019-07-23 07:36:33,103.838752,1.313077,2,0,2,POINT (103.838752 1.313077)
69,River Valley,1,SN,alert-1652826155/5d7b2852-75d2-3c50-a64e-6f9a4366a09e,,,False,False,"{'x': 103.826211, 'y': 1.290853}",0,0,0,2,,1563863042000,7,,,,,49,4,2.0,False,0,Delta Rd,HAZARD_ON_ROAD_CONSTRUCTION,HAZARD,5d7b2852-75d2-3c50-a64e-6f9a4366a09e,"world,103.826211,1.290853,5d7b2852-75d2-3c50-a64e-6f9a4366a09e,1652826155",2019-07-23 06:24:02,103.826211,1.290853,2,0,2,POINT (103.826211 1.290853)
70,Newton,1,SN,alert-1640900351/50388a21-d045-3059-ba64-faf67ff6aaf3,,,False,False,"{'x': 103.841684, 'y': 1.307529}",219,0,0,3,,1563848498000,8,,,,,24,2,1.0,False,0,Cavenagh Rd,HAZARD_ON_ROAD_CONSTRUCTION,HAZARD,50388a21-d045-3059-ba64-faf67ff6aaf3,"world,103.841684,1.307529,50388a21-d045-3059-ba64-faf67ff6aaf3,1640900351",2019-07-23 02:21:38,103.841684,1.307529,3,0,3,POINT (103.841684 1.307529)
71,Outram,0,SN,alert-1656553307/7c4859b7-f54b-3868-9c23-46fa02ab2d8e,,,False,False,"{'x': 103.843438, 'y': 1.287625}",115,0,0,0,,1563867714000,5,,,,,49,4,2.0,False,0,Havelock Rd,HAZARD_ON_ROAD_CONSTRUCTION,HAZARD,7c4859b7-f54b-3868-9c23-46fa02ab2d8e,"world,103.843438,1.287625,7c4859b7-f54b-3868-9c23-46fa02ab2d8e,1656553307",2019-07-23 07:41:54,103.843438,1.287625,0,0,0,POINT (103.843438 1.287625)
72,River Valley,0,SN,alert-1658653416/f7ea6ac9-5070-36d7-9c8a-d8103ee951a3,,,False,False,"{'x': 103.831014, 'y': 1.294586}",63,1,0,0,,1563867764000,6,Total_Kaos123,,,,8,4,,False,0,Kim Seng Walk,HAZARD_ON_ROAD_CAR_STOPPED,HAZARD,f7ea6ac9-5070-36d7-9c8a-d8103ee951a3,"world,103.831014,1.294586,f7ea6ac9-5070-36d7-9c8a-d8103ee951a3,1658653416",2019-07-23 07:42:44,103.831014,1.294586,0,1,1,POINT (103.831014 1.294586)
73,Orchard,0,SN,alert-1635947162/5ed8bc12-44a6-31a3-8e07-eeddbd35ff94,,,False,False,"{'x': 103.835614, 'y': 1.301903}",28,0,0,0,,1563867775000,5,,,,,49,1,17.0,False,0,Lobby Mandarin Orchard,JAM_HEAVY_TRAFFIC,JAM,5ed8bc12-44a6-31a3-8e07-eeddbd35ff94,"world,103.835614,1.301903,5ed8bc12-44a6-31a3-8e07-eeddbd35ff94,1635947162",2019-07-23 07:42:55,103.835614,1.301903,0,0,0,POINT (103.835614 1.301903)
74,Orchard,0,SN,alert-1647267198/4b9f7447-00b5-3369-a0f6-15ac3b30f024,,,False,False,"{'x': 103.835809, 'y': 1.302338}",19,0,0,0,,1563867872000,5,,,,,49,1,2.0,False,0,Orchard Link,JAM_STAND_STILL_TRAFFIC,JAM,4b9f7447-00b5-3369-a0f6-15ac3b30f024,"world,103.835809,1.302338,4b9f7447-00b5-3369-a0f6-15ac3b30f024,1647267198",2019-07-23 07:44:32,103.835809,1.302338,0,0,0,POINT (103.835809 1.302338)
75,,0,SN,alert-1658753226/0de346d2-ea3d-333f-adb4-2168e68ac941,,,False,False,"{'x': 103.885883, 'y': 1.295572}",285,0,0,0,Siglap,1563868024000,5,,,,,10,3,4.0,False,0,,HAZARD_ON_ROAD_CAR_STOPPED,HAZARD,0de346d2-ea3d-333f-adb4-2168e68ac941,"world,103.885883,1.295572,0de346d2-ea3d-333f-adb4-2168e68ac941,1658753226",2019-07-23 07:47:04,103.885883,1.295572,0,0,0,POINT (103.885883 1.295572)
76,River Valley,2,SN,alert-1652907246/45b7d0cc-8937-3e24-b7e9-c3c3061eef9e,,,False,False,"{'x': 103.840361, 'y': 1.289068}",107,0,0,5,,1563868114000,10,,,,,1,3,2.0,False,0,Havelock Rd,ACCIDENT_MINOR,ACCIDENT,45b7d0cc-8937-3e24-b7e9-c3c3061eef9e,"world,103.840361,1.289068,45b7d0cc-8937-3e24-b7e9-c3c3061eef9e,1652907246",2019-07-23 07:48:34,103.840361,1.289068,5,0,5,POINT (103.840361 1.289068)
77,Tanjong Rhu,0,SN,alert-1643854201/acaee259-cac8-3795-8a4b-6a138bffa477,,,False,False,"{'x': 103.884348, 'y': 1.298041}",95,0,0,2,,1563849214000,8,Henro88,,,,46,2,1.0,False,0,Tanjong Rhu Rd,HAZARD_ON_ROAD_CONSTRUCTION,HAZARD,acaee259-cac8-3795-8a4b-6a138bffa477,"world,103.884348,1.298041,acaee259-cac8-3795-8a4b-6a138bffa477,1643854201",2019-07-23 02:33:34,103.884348,1.298041,2,0,2,POINT (103.884348 1.298041)
78,Kallang,0,SN,alert-1642424530/b97da5f1-2714-3d31-ba76-fb0f67e1390d,,,False,False,"{'x': 103.860381, 'y': 1.318054}",37,0,0,0,,1563868183000,5,zayo123,,,,24,4,2.0,False,0,Serangoon Road,JAM_STAND_STILL_TRAFFIC,JAM,b97da5f1-2714-3d31-ba76-fb0f67e1390d,"world,103.860381,1.318054,b97da5f1-2714-3d31-ba76-fb0f67e1390d,1642424530",2019-07-23 07:49:43,103.860381,1.318054,0,0,0,POINT (103.860381 1.318054)
79,Novena,1,SN,alert-1657575876/60cd018f-e1f5-3ca8-aaf2-11dff1e85d61,,,False,False,"{'x': 103.844646, 'y': 1.316596}",161,0,0,4,,1563857072000,10,edojirro,,,,1,1,2.0,False,0,Thomson Rd,HAZARD_ON_ROAD_CONSTRUCTION,HAZARD,60cd018f-e1f5-3ca8-aaf2-11dff1e85d61,"world,103.844646,1.316596,60cd018f-e1f5-3ca8-aaf2-11dff1e85d61,1657575876",2019-07-23 04:44:32,103.844646,1.316596,4,0,4,POINT (103.844646 1.316596)
80,,0,SN,alert-1641374092/9d00dbf0-58fb-3840-af47-d59b0be4d524,,,False,False,"{'x': 103.841357, 'y': 1.288155}",132,0,0,0,Outram,1563868228000,5,,,,,24,0,2.0,False,0,,,ACCIDENT,9d00dbf0-58fb-3840-af47-d59b0be4d524,"world,103.841357,1.288155,9d00dbf0-58fb-3840-af47-d59b0be4d524,1641374092",2019-07-23 07:50:28,103.841357,1.288155,0,0,0,POINT (103.841357 1.288155)
81,Downtown,0,SN,alert-1639793503/d6b714d4-e2dd-3b84-a244-4151c91b4fa7,,,False,False,"{'x': 103.849577, 'y': 1.278342}",301,0,0,0,,1563868259000,5,Total_Kaos123,,,,8,4,,False,0,McCallum St,HAZARD_ON_ROAD_CAR_STOPPED,HAZARD,d6b714d4-e2dd-3b84-a244-4151c91b4fa7,"world,103.849577,1.278342,d6b714d4-e2dd-3b84-a244-4151c91b4fa7,1639793503",2019-07-23 07:50:59,103.849577,1.278342,0,0,0,POINT (103.849577 1.278342)
82,Bukit Merah,0,SN,alert-1635164342/987209d3-6cfc-373c-9acf-18a322949ff5,,,False,False,"{'x': 103.817511, 'y': 1.288829}",298,0,0,0,,1563857371000,5,Loontoot,,,,49,3,1.0,False,0,Tiong Bahru Rd,HAZARD_ON_ROAD_CONSTRUCTION,HAZARD,987209d3-6cfc-373c-9acf-18a322949ff5,"world,103.817511,1.288829,987209d3-6cfc-373c-9acf-18a322949ff5,1635164342",2019-07-23 04:49:31,103.817511,1.288829,0,0,0,POINT (103.817511 1.288829)
83,Bukit Merah,0,SN,alert-1652813558/93548e7d-55cb-30dc-b96e-40ab20e24e0b,,,False,False,"{'x': 103.82312, 'y': 1.290495}",195,0,0,0,,1563868904000,5,,,,,1,0,,False,0,Henderson Rd,HAZARD_ON_ROAD_CONSTRUCTION,HAZARD,93548e7d-55cb-30dc-b96e-40ab20e24e0b,"world,103.82312,1.290495,93548e7d-55cb-30dc-b96e-40ab20e24e0b,1652813558",2019-07-23 08:01:44,103.82312,1.290495,0,0,0,POINT (103.82312 1.290495)
84,Rochor,0,SN,alert-1650135379/b46920c2-a371-3565-85b2-6404864baa2f,,,False,False,"{'x': 103.852758, 'y': 1.296804}",223,0,0,0,,1563869012000,5,,,,,50,2,1.0,False,0,Miller St,HAZARD_ON_ROAD_CONSTRUCTION,HAZARD,b46920c2-a371-3565-85b2-6404864baa2f,"world,103.852758,1.296804,b46920c2-a371-3565-85b2-6404864baa2f,1650135379",2019-07-23 08:03:32,103.852758,1.296804,0,0,0,POINT (103.852758 1.296804)
85,Outram,2,SN,alert-1637460272/3744cc82-0ad4-35f9-9120-64eaa61f6dfa,,,False,False,"{'x': 103.838973, 'y': 1.277679}",257,0,0,4,,1563849667000,9,,,,,10,2,1.0,False,0,Neil Rd,HAZARD_ON_ROAD_CONSTRUCTION,HAZARD,3744cc82-0ad4-35f9-9120-64eaa61f6dfa,"world,103.838973,1.277679,3744cc82-0ad4-35f9-9120-64eaa61f6dfa,1637460272",2019-07-23 02:41:07,103.838973,1.277679,4,0,4,POINT (103.838973 1.277679)
86,Newton,1,SN,alert-1648720338/997bcf81-8201-34c1-90b3-5022817f6944,,,False,False,"{'x': 103.843459, 'y': 1.30928}",221,0,0,3,,1563850011000,8,,,,,1,0,1.0,False,0,Cavenagh Rd,HAZARD_ON_ROAD_CONSTRUCTION,HAZARD,997bcf81-8201-34c1-90b3-5022817f6944,"world,103.843459,1.30928,997bcf81-8201-34c1-90b3-5022817f6944,1648720338",2019-07-23 02:46:51,103.843459,1.30928,3,0,3,POINT (103.843459 1.30928)
87,,0,SN,alert-1658072846/5224cb8f-f5f7-3250-8dbe-d17ea5d26cb9,,,False,False,"{'x': 103.737001, 'y': 1.345187}",232,0,0,2,Bukit Batok West Avenue 8,1563856958000,8,,,,,34,0,,False,0,To: Jurong Town Hall Road,HAZARD_ON_ROAD_CONSTRUCTION,HAZARD,5224cb8f-f5f7-3250-8dbe-d17ea5d26cb9,"world,103.737001,1.345187,5224cb8f-f5f7-3250-8dbe-d17ea5d26cb9,1658072846",2019-07-23 04:42:38,103.737001,1.345187,2,0,2,POINT (103.737001 1.345187)
88,Bukit Batok,0,SN,alert-1634863253/3beb207b-addb-3686-a5ab-1653e4fb3475,,,False,False,"{'x': 103.744478, 'y': 1.347329}",237,0,0,1,,1563852448000,6,Seckleonglee,,,,49,4,1.0,False,0,Bukit Batok West Ave 8,HAZARD_ON_ROAD_CONSTRUCTION,HAZARD,3beb207b-addb-3686-a5ab-1653e4fb3475,"world,103.744478,1.347329,3beb207b-addb-3686-a5ab-1653e4fb3475,1634863253",2019-07-23 03:27:28,103.744478,1.347329,1,0,1,POINT (103.744478 1.347329)
89,Jurong,0,SN,alert-1654299675/e06f7c63-e9da-3ecc-a570-3a8c0905d08b,,,False,False,"{'x': 103.721399, 'y': 1.342218}",182,0,0,1,,1563846716000,6,jorjerang,,,,46,2,1.0,False,0,Yuan Ching Rd,HAZARD_ON_ROAD_CONSTRUCTION,HAZARD,e06f7c63-e9da-3ecc-a570-3a8c0905d08b,"world,103.721399,1.342218,e06f7c63-e9da-3ecc-a570-3a8c0905d08b,1654299675",2019-07-23 01:51:56,103.721399,1.342218,1,0,1,POINT (103.721399 1.342218)
90,Jurong West,0,SN,alert-1645642049/dda9cd66-e188-39bb-a5dc-3afcbdc07bb5,,,False,False,"{'x': 103.725593, 'y': 1.348699}",160,0,0,1,,1563847267000,7,,,,,1,1,1.0,False,0,Jurong West St 41,HAZARD_ON_ROAD_CONSTRUCTION,HAZARD,dda9cd66-e188-39bb-a5dc-3afcbdc07bb5,"world,103.725593,1.348699,dda9cd66-e188-39bb-a5dc-3afcbdc07bb5,1645642049",2019-07-23 02:01:07,103.725593,1.348699,1,0,1,POINT (103.725593 1.348699)
91,Jurong East,1,SN,alert-1636143012/e7fc4d60-af88-3b26-950e-f285817a3473,,,False,False,"{'x': 103.736124, 'y': 1.343346}",200,0,0,2,,1563852633000,7,,,,,1,4,2.0,False,0,Jurong Town Hall Road,HAZARD_ON_ROAD_CONSTRUCTION,HAZARD,e7fc4d60-af88-3b26-950e-f285817a3473,"world,103.736124,1.343346,e7fc4d60-af88-3b26-950e-f285817a3473,1636143012",2019-07-23 03:30:33,103.736124,1.343346,2,0,2,POINT (103.736124 1.343346)
92,Jurong West,0,SN,alert-1642262021/22ee12d1-6547-34cb-98ef-e213572b7f68,,,False,False,"{'x': 103.726026, 'y': 1.347453}",7,0,0,1,,1563848835000,6,,,,,1,1,,False,0,Jurong West St 41,HAZARD_ON_ROAD_CONSTRUCTION,HAZARD,22ee12d1-6547-34cb-98ef-e213572b7f68,"world,103.726026,1.347453,22ee12d1-6547-34cb-98ef-e213572b7f68,1642262021",2019-07-23 02:27:15,103.726026,1.347453,1,0,1,POINT (103.726026 1.347453)
93,Jurong West,3,SN,alert-1654301385/b54b21f5-6d9e-3832-8c8e-7d758778bd0e,,,False,False,"{'x': 103.714144, 'y': 1.353192}",55,1,0,6,,1563854863000,10,,,,,24,3,2.0,False,0,Jurong West Ave 2,HAZARD_ON_ROAD_CONSTRUCTION,HAZARD,b54b21f5-6d9e-3832-8c8e-7d758778bd0e,"world,103.714144,1.353192,b54b21f5-6d9e-3832-8c8e-7d758778bd0e,1654301385",2019-07-23 04:07:43,103.714144,1.353192,6,1,7,POINT (103.714144 1.353192)
94,,0,SN,alert-1645643729/9cfaf539-8514-31d2-bc22-f1dcd31ad45c,,,False,False,"{'x': 103.736964, 'y': 1.345157}",232,0,0,1,Bukit Batok West Avenue 8,1563855361000,6,,,,,24,3,4.0,False,0,To: Jurong Town Hall Road,HAZARD_ON_ROAD_CONSTRUCTION,HAZARD,9cfaf539-8514-31d2-bc22-f1dcd31ad45c,"world,103.736964,1.345157,9cfaf539-8514-31d2-bc22-f1dcd31ad45c,1645643729",2019-07-23 04:16:01,103.736964,1.345157,1,0,1,POINT (103.736964 1.345157)
95,Bukit Batok,0,SN,alert-1655802834/7a0d0d8b-0f0f-380a-b68d-d5b1c72cdf14,,,False,False,"{'x': 103.75011, 'y': 1.3516}",134,0,0,0,,1563861505000,6,,,,,24,2,2.0,False,0,Bukit Batok Central,HAZARD_ON_ROAD_CONSTRUCTION,HAZARD,7a0d0d8b-0f0f-380a-b68d-d5b1c72cdf14,"world,103.75011,1.3516,7a0d0d8b-0f0f-380a-b68d-d5b1c72cdf14,1655802834",2019-07-23 05:58:25,103.75011,1.3516,0,0,0,POINT (103.75011 1.3516)
96,Jurong West,0,SN,alert-1634986852/c0ca1d9f-cb55-3c35-b5a5-2e927f1ad206,,,False,False,"{'x': 103.725986, 'y': 1.347141}",7,0,0,0,,1563868323000,5,Muliantoh,,,,50,4,1.0,False,0,Jurong West St 41,JAM_HEAVY_TRAFFIC,JAM,c0ca1d9f-cb55-3c35-b5a5-2e927f1ad206,"world,103.725986,1.347141,c0ca1d9f-cb55-3c35-b5a5-2e927f1ad206,1634986852",2019-07-23 07:52:03,103.725986,1.347141,0,0,0,POINT (103.725986 1.347141)
97,,0,SN,alert-1652186485/f7d5c8fc-08fb-3ab7-a5b2-b03199e6b431,,,False,False,"{'x': 103.721187, 'y': 1.355334}",267,0,0,0,Boon Lay,1563868961000,5,,,,,10,3,4.0,False,0,Exit 34: Corporation Rd,HAZARD_ON_ROAD_CONSTRUCTION,HAZARD,f7d5c8fc-08fb-3ab7-a5b2-b03199e6b431,"world,103.721187,1.355334,f7d5c8fc-08fb-3ab7-a5b2-b03199e6b431,1652186485",2019-07-23 08:02:41,103.721187,1.355334,0,0,0,POINT (103.721187 1.355334)
98,Bukit Timah,2,SN,alert-1645641919/6fbaf838-64a8-356b-8b54-c94b6a09f904,,,False,False,"{'x': 103.791498, 'y': 1.332999}",292,0,0,5,,1563846428000,10,,,,,50,2,2.0,False,0,Bukit Timah Rd,HAZARD_ON_ROAD_CONSTRUCTION,HAZARD,6fbaf838-64a8-356b-8b54-c94b6a09f904,"world,103.791498,1.332999,6fbaf838-64a8-356b-8b54-c94b6a09f904,1645641919",2019-07-23 01:47:08,103.791498,1.332999,5,0,5,POINT (103.791498 1.332999)
99,Bukit Timah,0,SN,alert-1641586701/a7d59fd6-06ad-314b-a1bb-71734ac022a3,,,False,False,"{'x': 103.79853, 'y': 1.335411}",199,0,0,0,,1563856625000,5,,,,,49,2,2.0,False,0,Eng Neo Ave,HAZARD_ON_ROAD_CONSTRUCTION,HAZARD,a7d59fd6-06ad-314b-a1bb-71734ac022a3,"world,103.79853,1.335411,a7d59fd6-06ad-314b-a1bb-71734ac022a3,1641586701",2019-07-23 04:37:05,103.79853,1.335411,0,0,0,POINT (103.79853 1.335411)
100,Bukit Timah,0,SN,alert-1653801615/9baa9bf0-5c3d-330e-b095-bc02bf512d5d,,,False,False,"{'x': 103.76887, 'y': 1.339822}",58,0,0,0,,1563843761000,6,,,,,49,4,1.0,False,0,Toh Tuck Rd,HAZARD_ON_ROAD_CONSTRUCTION,HAZARD,9baa9bf0-5c3d-330e-b095-bc02bf512d5d,"world,103.76887,1.339822,9baa9bf0-5c3d-330e-b095-bc02bf512d5d,1653801615",2019-07-23 01:02:41,103.76887,1.339822,0,0,0,POINT (103.76887 1.339822)
101,Bukit Timah,1,SN,alert-1635201923/0fde860e-0481-3862-9630-aff403305b91,,,False,False,"{'x': 103.789012, 'y': 1.333903}",290,0,0,3,,1563846454000,8,,,,,50,2,2.0,False,0,Bukit Timah Rd,HAZARD_ON_ROAD_CONSTRUCTION,HAZARD,0fde860e-0481-3862-9630-aff403305b91,"world,103.789012,1.333903,0fde860e-0481-3862-9630-aff403305b91,1635201923",2019-07-23 01:47:34,103.789012,1.333903,3,0,3,POINT (103.789012 1.333903)
102,Bukit Timah,0,SN,alert-1652342547/9df37452-6175-33bf-9f9f-0920b8bb6a84,,,False,False,"{'x': 103.776826, 'y': 1.339068}",323,0,0,0,,1563858682000,5,wendythy95,,,,10,4,2.0,False,0,Upp Bukit Timah Rd,HAZARD_ON_ROAD_CONSTRUCTION,HAZARD,9df37452-6175-33bf-9f9f-0920b8bb6a84,"world,103.776826,1.339068,9df37452-6175-33bf-9f9f-0920b8bb6a84,1652342547",2019-07-23 05:11:22,103.776826,1.339068,0,0,0,POINT (103.776826 1.339068)
103,Bukit Timah,4,SN,alert-1655415247/60f37f7d-7a11-3249-b74e-f66f09f397f2,,,False,False,"{'x': 103.798576, 'y': 1.335551}",199,0,0,9,,1563854398000,10,,,,,49,2,2.0,False,0,Eng Neo Ave,HAZARD_ON_ROAD_CONSTRUCTION,HAZARD,60f37f7d-7a11-3249-b74e-f66f09f397f2,"world,103.798576,1.335551,60f37f7d-7a11-3249-b74e-f66f09f397f2,1655415247",2019-07-23 03:59:58,103.798576,1.335551,9,0,9,POINT (103.798576 1.335551)
104,Bukit Timah,3,SN,alert-1640282770/e0ab163e-1edb-3fca-855d-ab7a83ac04b2,,,False,False,"{'x': 103.779892, 'y': 1.337394}",109,0,0,8,,1563850211000,10,,,,,0,3,1.0,False,0,,HAZARD_ON_ROAD_CONSTRUCTION,HAZARD,e0ab163e-1edb-3fca-855d-ab7a83ac04b2,"world,103.779892,1.337394,e0ab163e-1edb-3fca-855d-ab7a83ac04b2,1640282770",2019-07-23 02:50:11,103.779892,1.337394,8,0,8,POINT (103.779892 1.337394)
105,Bukit Timah,0,SN,alert-1633464003/f32ea00f-3a20-3d27-a328-c92e8e286a6a,,,False,False,"{'x': 103.79601, 'y': 1.333088}",290,0,0,1,,1563856010000,6,uniquely_ad,kiss,Kiss 92,,38,2,1.0,False,0,Vanda Link,HAZARD_ON_ROAD_CONSTRUCTION,HAZARD,f32ea00f-3a20-3d27-a328-c92e8e286a6a,"world,103.79601,1.333088,f32ea00f-3a20-3d27-a328-c92e8e286a6a,1633464003",2019-07-23 04:26:50,103.79601,1.333088,1,0,1,POINT (103.79601 1.333088)
106,Bukit Timah,0,SN,alert-1640376672/ef5278fd-40d2-31ff-a51b-1d152877f9f9,,,False,False,"{'x': 103.77892, 'y': 1.337987}",23,0,0,1,,1563860888000,6,beetlemoose,,,,0,4,2.0,False,0,Jln Anak Bukit,HAZARD_ON_ROAD_CONSTRUCTION,HAZARD,ef5278fd-40d2-31ff-a51b-1d152877f9f9,"world,103.77892,1.337987,ef5278fd-40d2-31ff-a51b-1d152877f9f9,1640376672",2019-07-23 05:48:08,103.77892,1.337987,1,0,1,POINT (103.77892 1.337987)
107,Bukit Timah,0,SN,alert-1653806335/4ba9f789-b0ea-3c6f-8cae-83f49fa0007c,,,False,False,"{'x': 103.780473, 'y': 1.336926}",290,0,0,0,,1563866101000,6,,,,,40,2,2.0,False,0,Bukit Timah Rd,HAZARD_ON_ROAD_CONSTRUCTION,HAZARD,4ba9f789-b0ea-3c6f-8cae-83f49fa0007c,"world,103.780473,1.336926,4ba9f789-b0ea-3c6f-8cae-83f49fa0007c,1653806335",2019-07-23 07:15:01,103.780473,1.336926,0,0,0,POINT (103.780473 1.336926)
108,Bukit Timah,0,SN,alert-1639675193/4f4a86bb-e881-3f90-9e8a-e21573f8da11,,,False,False,"{'x': 103.779533, 'y': 1.337523}",100,0,0,0,,1563867931000,5,nicjude,onefm913,One FM 91.3,Right lane,52,3,2.0,False,0,Dunearn Rd,HAZARD_ON_ROAD_CONSTRUCTION,HAZARD,4f4a86bb-e881-3f90-9e8a-e21573f8da11,"world,103.779533,1.337523,4f4a86bb-e881-3f90-9e8a-e21573f8da11,1639675193",2019-07-23 07:45:31,103.779533,1.337523,0,0,0,POINT (103.779533 1.337523)
109,Bukit Batok,0,SN,alert-1650959727/03352ed2-42a0-3397-b181-08f5a6b2f84a,,,False,False,"{'x': 103.755871, 'y': 1.347079}",224,0,0,0,,1563838548000,6,Blitz30sce,ufmnew1,UFM 100.3,,49,4,1.0,False,0,Bukit Batok St 21,HAZARD_ON_ROAD_CONSTRUCTION,HAZARD,03352ed2-42a0-3397-b181-08f5a6b2f84a,"world,103.755871,1.347079,03352ed2-42a0-3397-b181-08f5a6b2f84a,1650959727",2019-07-22 23:35:48,103.755871,1.347079,0,0,0,POINT (103.755871 1.347079)
110,Bukit Timah,3,SN,alert-1649153669/6a85501b-6cac-39ea-963b-082466551485,,,False,False,"{'x': 103.770795, 'y': 1.348219}",324,1,0,5,,1563846185000,10,,,,,10,2,2.0,False,0,Upp Bukit Timah Rd,HAZARD_ON_ROAD_CONSTRUCTION,HAZARD,6a85501b-6cac-39ea-963b-082466551485,"world,103.770795,1.348219,6a85501b-6cac-39ea-963b-082466551485,1649153669",2019-07-23 01:43:05,103.770795,1.348219,5,1,6,POINT (103.770795 1.348219)
111,Bukit Timah,2,SN,alert-1646160099/c87ea739-7c2c-3dd8-81be-997fec93d606,,,False,False,"{'x': 103.774711, 'y': 1.344783}",310,0,0,5,,1563847280000,10,ZhengtuoWang,,,,27,5,2.0,False,0,Jln Anak Bukit,HAZARD_ON_ROAD_CONSTRUCTION,HAZARD,c87ea739-7c2c-3dd8-81be-997fec93d606,"world,103.774711,1.344783,c87ea739-7c2c-3dd8-81be-997fec93d606,1646160099",2019-07-23 02:01:20,103.774711,1.344783,5,0,5,POINT (103.774711 1.344783)
112,,3,SN,alert-1652824865/6c99a8d6-154d-31ba-bd4f-945ef159d8d9,,,False,False,"{'x': 103.781507, 'y': 1.34267}",73,3,0,4,Bukit Timah,1563857806000,10,,,,,24,3,4.0,False,0,to: PIE (Changi Airport),HAZARD_ON_ROAD_CONSTRUCTION,HAZARD,6c99a8d6-154d-31ba-bd4f-945ef159d8d9,"world,103.781507,1.34267,6c99a8d6-154d-31ba-bd4f-945ef159d8d9,1652824865",2019-07-23 04:56:46,103.781507,1.34267,4,3,7,POINT (103.781507 1.34267)
113,,0,SN,alert-1658653606/84532dab-7a92-33b6-9dac-1951998082b0,,,False,False,"{'x': 103.793482, 'y': 1.348005}",241,0,0,0,Bukit Timah,1563868906000,6,,,,,10,3,4.0,False,0,Exit 24: BKE (Woodlands),ACCIDENT_MINOR,ACCIDENT,84532dab-7a92-33b6-9dac-1951998082b0,"world,103.793482,1.348005,84532dab-7a92-33b6-9dac-1951998082b0,1658653606",2019-07-23 08:01:46,103.793482,1.348005,0,0,0,POINT (103.793482 1.348005)
114,Mandai,1,SN,alert-1654319015/8fd753ca-a6d0-3014-bfb1-e15b4c40477e,,,False,False,"{'x': 103.786669, 'y': 1.404659}",127,0,0,3,,1563842306000,9,,,,,48,4,1.0,False,0,Mandai Lake Rd,HAZARD_ON_ROAD_CONSTRUCTION,HAZARD,8fd753ca-a6d0-3014-bfb1-e15b4c40477e,"world,103.786669,1.404659,8fd753ca-a6d0-3014-bfb1-e15b4c40477e,1654319015",2019-07-23 00:38:26,103.786669,1.404659,3,0,3,POINT (103.786669 1.404659)
115,Lim Chu Kang,0,SN,alert-1657595286/5ba96334-facf-335e-b8da-3d3e1421bb69,,,False,False,"{'x': 103.712476, 'y': 1.373071}",73,0,0,0,,1563854840000,5,,,,,10,4,2.0,False,0,Old Choa Chu Kang Road,HAZARD_ON_ROAD_CONSTRUCTION,HAZARD,5ba96334-facf-335e-b8da-3d3e1421bb69,"world,103.712476,1.373071,5ba96334-facf-335e-b8da-3d3e1421bb69,1657595286",2019-07-23 04:07:20,103.712476,1.373071,0,0,0,POINT (103.712476 1.373071)
116,Choa Chu Kang,0,SN,alert-1659932814/30432577-c44b-30fc-85c7-9a412dd2823c,,,False,False,"{'x': 103.758222, 'y': 1.379701}",116,0,0,1,,1563856986000,6,,,,,1,3,1.0,False,0,Jln Teck Whye,HAZARD_ON_ROAD_CONSTRUCTION,HAZARD,30432577-c44b-30fc-85c7-9a412dd2823c,"world,103.758222,1.379701,30432577-c44b-30fc-85c7-9a412dd2823c,1659932814",2019-07-23 04:43:06,103.758222,1.379701,1,0,1,POINT (103.758222 1.379701)
117,,2,SN,alert-1641313522/b6ed5b2b-3cc6-3250-9b22-0d76a00a5018,,,False,False,"{'x': 103.759071, 'y': 1.383895}",0,0,0,5,,1563860616000,10,,,,,21,2,,False,0,,HAZARD_ON_ROAD_CONSTRUCTION,HAZARD,b6ed5b2b-3cc6-3250-9b22-0d76a00a5018,"world,103.759071,1.383895,b6ed5b2b-3cc6-3250-9b22-0d76a00a5018,1641313522",2019-07-23 05:43:36,103.759071,1.383895,5,0,5,POINT (103.759071 1.383895)
118,,0,SN,alert-1654124095/94094e82-b738-3403-8fbf-5791c0691acd,,,False,False,"{'x': 103.778204, 'y': 1.372589}",170,0,0,0,Bukit Panjang,1563865317000,6,,,,,10,3,4.0,False,0,to: BKE (PIE),HAZARD_ON_ROAD_CONSTRUCTION,HAZARD,94094e82-b738-3403-8fbf-5791c0691acd,"world,103.778204,1.372589,94094e82-b738-3403-8fbf-5791c0691acd,1654124095",2019-07-23 07:01:57,103.778204,1.372589,0,0,0,POINT (103.778204 1.372589)
119,Bukit Panjang,0,SN,alert-1652773318/712a8add-76df-362f-b79c-e6d65fe82f18,,,False,False,"{'x': 103.772607, 'y': 1.376897}",122,0,0,1,,1563867233000,6,,,,,10,2,2.0,False,0,Bukit Panjang Rd,HAZARD_ON_ROAD_CAR_STOPPED,HAZARD,712a8add-76df-362f-b79c-e6d65fe82f18,"world,103.772607,1.376897,712a8add-76df-362f-b79c-e6d65fe82f18,1652773318",2019-07-23 07:33:53,103.772607,1.376897,1,0,1,POINT (103.772607 1.376897)
120,Choa Chu Kang,0,SN,alert-1658614176/904e7a10-5aa6-3a2d-b661-55f09a3c43fe,,,False,False,"{'x': 103.74327, 'y': 1.374312}",127,0,0,0,,1563868036000,5,ryanrawi,,,,50,3,,False,0,,HAZARD_ON_ROAD_CAR_STOPPED,HAZARD,904e7a10-5aa6-3a2d-b661-55f09a3c43fe,"world,103.74327,1.374312,904e7a10-5aa6-3a2d-b661-55f09a3c43fe,1658614176",2019-07-23 07:47:16,103.74327,1.374312,0,0,0,POINT (103.74327 1.374312)
121,Choa Chu Kang,3,SN,alert-1636980823/223869a1-abf0-384c-ae3a-fa4208365f4a,,,False,False,"{'x': 103.747695, 'y': 1.369795}",312,0,0,7,,1563840601000,10,,,,,0,3,,False,0,Brickland Rd,HAZARD_ON_ROAD_CONSTRUCTION,HAZARD,223869a1-abf0-384c-ae3a-fa4208365f4a,"world,103.747695,1.369795,223869a1-abf0-384c-ae3a-fa4208365f4a,1636980823",2019-07-23 00:10:01,103.747695,1.369795,7,0,7,POINT (103.747695 1.369795)
122,Novena,4,SN,alert-1643921919/848105e9-494a-3397-af1f-688461ae01ae,,,False,False,"{'x': 103.841779, 'y': 1.321677}",341,1,0,8,,1563845978000,10,,,,,49,4,2.0,False,0,Thomson Rd,HAZARD_ON_ROAD_CONSTRUCTION,HAZARD,848105e9-494a-3397-af1f-688461ae01ae,"world,103.841779,1.321677,848105e9-494a-3397-af1f-688461ae01ae,1643921919",2019-07-23 01:39:38,103.841779,1.321677,8,1,9,POINT (103.841779 1.321677)
123,Bukit Timah,5,SN,alert-1656485514/c87754d2-e2e5-3afa-98d3-67e17cb60b08,,,False,False,"{'x': 103.806368, 'y': 1.327285}",123,0,0,12,,1563848706000,10,SkyToh85,,,,49,5,,False,0,Dunearn Rd,HAZARD_ON_ROAD_CONSTRUCTION,HAZARD,c87754d2-e2e5-3afa-98d3-67e17cb60b08,"world,103.806368,1.327285,c87754d2-e2e5-3afa-98d3-67e17cb60b08,1656485514",2019-07-23 02:25:06,103.806368,1.327285,12,0,12,POINT (103.806368 1.327285)
124,Novena,2,SN,alert-1640982371/d01aa3e0-a5a2-367d-a230-860c495746c3,,,False,False,"{'x': 103.837969, 'y': 1.327106}",252,0,0,6,,1563856961000,10,,,,,50,2,1.0,False,0,Whitley Rd,HAZARD_ON_ROAD_CONSTRUCTION,HAZARD,d01aa3e0-a5a2-367d-a230-860c495746c3,"world,103.837969,1.327106,d01aa3e0-a5a2-367d-a230-860c495746c3,1640982371",2019-07-23 04:42:41,103.837969,1.327106,6,0,6,POINT (103.837969 1.327106)
125,Novena,0,SN,alert-1641146200/2290d1ff-2902-3233-ae64-7bc0a3957e9c,,,False,False,"{'x': 103.841725, 'y': 1.323225}",188,0,0,1,,1563867436000,6,,,,,10,4,2.0,False,0,Thomson Rd,HAZARD_ON_SHOULDER_MISSING_SIGN,HAZARD,2290d1ff-2902-3233-ae64-7bc0a3957e9c,"world,103.841725,1.323225,2290d1ff-2902-3233-ae64-7bc0a3957e9c,1641146200",2019-07-23 07:37:16,103.841725,1.323225,1,0,1,POINT (103.841725 1.323225)
126,Thomson,1,SN,alert-1644953611/d394bcaf-5d3a-39fd-b087-32ab26891abb,,,False,False,"{'x': 103.840796, 'y': 1.328447}",333,0,0,3,,1563868603000,9,,,,,49,3,2.0,False,0,Thomson Rd,ACCIDENT_MINOR,ACCIDENT,d394bcaf-5d3a-39fd-b087-32ab26891abb,"world,103.840796,1.328447,d394bcaf-5d3a-39fd-b087-32ab26891abb,1644953611",2019-07-23 07:56:43,103.840796,1.328447,3,0,3,POINT (103.840796 1.328447)
127,Bukit Timah,0,SN,alert-1656375347/41d6d442-7366-3114-b3ff-ae49a45afb5a,,,False,False,"{'x': 103.83311, 'y': 1.31863}",106,0,0,0,,1563869133000,5,,,,,0,0,2.0,False,0,Dunearn Rd,JAM_HEAVY_TRAFFIC,JAM,41d6d442-7366-3114-b3ff-ae49a45afb5a,"world,103.83311,1.31863,41d6d442-7366-3114-b3ff-ae49a45afb5a,1656375347",2019-07-23 08:05:33,103.83311,1.31863,0,0,0,POINT (103.83311 1.31863)
128,Bishan,0,SN,alert-1640395242/8f776e61-d14f-3ece-b507-d35dcd3fb819,,,False,False,"{'x': 103.838258, 'y': 1.356561}",216,0,0,0,,1563854371000,5,DarrionATeo,kiss,Kiss 92,,10,3,1.0,False,0,Sin Ming Rd,HAZARD_ON_ROAD_CONSTRUCTION,HAZARD,8f776e61-d14f-3ece-b507-d35dcd3fb819,"world,103.838258,1.356561,8f776e61-d14f-3ece-b507-d35dcd3fb819,1640395242",2019-07-23 03:59:31,103.838258,1.356561,0,0,0,POINT (103.838258 1.356561)
129,Thomson,0,SN,alert-1639732733/c47390fa-e49a-3d82-91be-d498f1149213,,,False,False,"{'x': 103.833919, 'y': 1.353566}",311,0,0,0,,1563860524000,5,hskkCool,,,,46,3,,False,0,Upp Thomson Rd,HAZARD_ON_ROAD_CONSTRUCTION,HAZARD,c47390fa-e49a-3d82-91be-d498f1149213,"world,103.833919,1.353566,c47390fa-e49a-3d82-91be-d498f1149213,1639732733",2019-07-23 05:42:04,103.833919,1.353566,0,0,0,POINT (103.833919 1.353566)
130,Bishan,0,SN,alert-1656353957/e0137f63-effc-32dc-b521-ce22169a91bf,,,False,False,"{'x': 103.83623, 'y': 1.354457}",35,0,0,0,,1563863042000,5,AhLongPunchdieyou,,,,50,2,1.0,False,0,Sin Ming Rd,HAZARD_ON_ROAD_CONSTRUCTION,HAZARD,e0137f63-effc-32dc-b521-ce22169a91bf,"world,103.83623,1.354457,e0137f63-effc-32dc-b521-ce22169a91bf,1656353957",2019-07-23 06:24:02,103.83623,1.354457,0,0,0,POINT (103.83623 1.354457)
131,Thomson,0,SN,alert-1658937294/7ce8791b-1196-3191-9650-6595d0d50d2b,,,False,False,"{'x': 103.836526, 'y': 1.353979}",213,0,0,0,,1563863595000,5,AhLongPunchdieyou,,,,50,2,1.0,False,0,Jln Minggu,HAZARD_ON_ROAD_CONSTRUCTION,HAZARD,7ce8791b-1196-3191-9650-6595d0d50d2b,"world,103.836526,1.353979,7ce8791b-1196-3191-9650-6595d0d50d2b,1658937294",2019-07-23 06:33:15,103.836526,1.353979,0,0,0,POINT (103.836526 1.353979)
132,Bishan,0,SN,alert-1640984821/4d502b10-b036-388a-b463-51ba8e17bfaf,,,False,False,"{'x': 103.836967, 'y': 1.355176}",231,1,0,0,,1563868331000,6,,,,,46,2,1.0,False,0,Sin Ming Rd,JAM_HEAVY_TRAFFIC,JAM,4d502b10-b036-388a-b463-51ba8e17bfaf,"world,103.836967,1.355176,4d502b10-b036-388a-b463-51ba8e17bfaf,1640984821",2019-07-23 07:52:11,103.836967,1.355176,0,1,1,POINT (103.836967 1.355176)
133,Bishan,0,SN,alert-1656573297/4e0710b2-beb5-3ebe-8aac-8676eaaf0836,,,False,False,"{'x': 103.837161, 'y': 1.355333}",231,0,0,0,,1563868439000,5,ElvinLHW,,,,0,5,1.0,False,0,Sin Ming Rd,HAZARD_ON_ROAD_CONSTRUCTION,HAZARD,4e0710b2-beb5-3ebe-8aac-8676eaaf0836,"world,103.837161,1.355333,4e0710b2-beb5-3ebe-8aac-8676eaaf0836,1656573297",2019-07-23 07:53:59,103.837161,1.355333,0,0,0,POINT (103.837161 1.355333)
134,Bishan,3,SN,alert-1651713528/72a70885-2731-3f53-97ab-f94f42a46e0e,,,False,False,"{'x': 103.84112, 'y': 1.354605}",203,0,0,6,,1563845977000,10,Wend88wong,,,,24,3,2.0,False,0,Marymount Rd,HAZARD_ON_ROAD_CONSTRUCTION,HAZARD,72a70885-2731-3f53-97ab-f94f42a46e0e,"world,103.84112,1.354605,72a70885-2731-3f53-97ab-f94f42a46e0e,1651713528",2019-07-23 01:39:37,103.84112,1.354605,6,0,6,POINT (103.84112 1.354605)
135,Thomson,5,SN,alert-1653702254/2fcabcf0-cc19-349d-a1b5-dbc4e12b522b,,,False,False,"{'x': 103.830235, 'y': 1.356037}",132,3,0,9,,1563847734000,10,ElectricKona,,,,49,4,2.0,False,0,Upp Thomson Rd,HAZARD_ON_ROAD_CONSTRUCTION,HAZARD,2fcabcf0-cc19-349d-a1b5-dbc4e12b522b,"world,103.830235,1.356037,2fcabcf0-cc19-349d-a1b5-dbc4e12b522b,1653702254",2019-07-23 02:08:54,103.830235,1.356037,9,3,12,POINT (103.830235 1.356037)
136,Thomson,0,SN,alert-1657594356/514f574c-9278-3b4f-86b9-39115f2bd9e5,,,False,False,"{'x': 103.828845, 'y': 1.35976}",171,0,0,1,,1563850082000,6,tofuKnife,kiss,Kiss 92,,46,3,2.0,False,0,Upp Thomson Rd,HAZARD_ON_ROAD_CONSTRUCTION,HAZARD,514f574c-9278-3b4f-86b9-39115f2bd9e5,"world,103.828845,1.35976,514f574c-9278-3b4f-86b9-39115f2bd9e5,1657594356",2019-07-23 02:48:02,103.828845,1.35976,1,0,1,POINT (103.828845 1.35976)
137,Bishan,0,SN,alert-1646380759/bfc3b2a9-eb18-35b4-bfab-f3dc42b59815,,,False,False,"{'x': 103.832082, 'y': 1.360541}",1,0,0,1,,1563850982000,6,,,,,49,2,1.0,False,0,Sin Ming Ave,HAZARD_ON_ROAD_CONSTRUCTION,HAZARD,bfc3b2a9-eb18-35b4-bfab-f3dc42b59815,"world,103.832082,1.360541,bfc3b2a9-eb18-35b4-bfab-f3dc42b59815,1646380759",2019-07-23 03:03:02,103.832082,1.360541,1,0,1,POINT (103.832082 1.360541)
138,Thomson,3,SN,alert-1652102986/4457b4f2-6d40-3da8-93bc-204bd6b7dab7,,,False,False,"{'x': 103.83921, 'y': 1.340683}",33,0,0,7,,1563851377000,10,,,,,11,3,2.0,False,0,Marymount Rd,HAZARD_ON_ROAD_CONSTRUCTION,HAZARD,4457b4f2-6d40-3da8-93bc-204bd6b7dab7,"world,103.83921,1.340683,4457b4f2-6d40-3da8-93bc-204bd6b7dab7,1652102986",2019-07-23 03:09:37,103.83921,1.340683,7,0,7,POINT (103.83921 1.340683)
139,Bishan,3,SN,alert-1641806661/1b9ea5a8-7a83-3bc6-bead-8b82484ea2c7,,,False,False,"{'x': 103.839028, 'y': 1.345149}",188,0,0,7,,1563852340000,10,,,,,8,1,,False,0,Marymount Rd,HAZARD_ON_ROAD_CONSTRUCTION,HAZARD,1b9ea5a8-7a83-3bc6-bead-8b82484ea2c7,"world,103.839028,1.345149,1b9ea5a8-7a83-3bc6-bead-8b82484ea2c7,1641806661",2019-07-23 03:25:40,103.839028,1.345149,7,0,7,POINT (103.839028 1.345149)
140,Toa Payoh,0,SN,alert-1648524288/19f5080e-1bd7-3dd4-afda-eb8ff7137006,,,False,False,"{'x': 103.847462, 'y': 1.334239}",270,0,0,1,,1563867091000,6,Kelly_Grace_Chua,,,,47,2,1.0,False,0,Toa Payoh Central,HAZARD_ON_ROAD_CONSTRUCTION,HAZARD,19f5080e-1bd7-3dd4-afda-eb8ff7137006,"world,103.847462,1.334239,19f5080e-1bd7-3dd4-afda-eb8ff7137006,1648524288",2019-07-23 07:31:31,103.847462,1.334239,1,0,1,POINT (103.847462 1.334239)
141,Kallang,0,SN,alert-1653981775/4aca7c00-cea0-33ae-9bed-37fe14c5659f,,,False,False,"{'x': 103.863924, 'y': 1.328245}",148,0,0,1,,1563845835000,6,,,,,10,5,1.0,False,0,Mar Thoma Rd,HAZARD_ON_ROAD_CONSTRUCTION,HAZARD,4aca7c00-cea0-33ae-9bed-37fe14c5659f,"world,103.863924,1.328245,4aca7c00-cea0-33ae-9bed-37fe14c5659f,1653981775",2019-07-23 01:37:15,103.863924,1.328245,1,0,1,POINT (103.863924 1.328245)
142,Toa Payoh,0,SN,alert-1635947122/33beafa6-9301-3849-9bfd-943756e7a1b3,,,False,False,"{'x': 103.84546, 'y': 1.335538}",271,0,0,0,,1563867598000,5,,,,,1,4,20.0,False,0,,HAZARD_ON_ROAD_CONSTRUCTION,HAZARD,33beafa6-9301-3849-9bfd-943756e7a1b3,"world,103.84546,1.335538,33beafa6-9301-3849-9bfd-943756e7a1b3,1635947122",2019-07-23 07:39:58,103.84546,1.335538,0,0,0,POINT (103.84546 1.335538)
143,,0,SN,alert-1642066620/bbcf8bc3-08fb-3a87-b093-44251fbfa18d,,,False,False,"{'x': 103.862766, 'y': 1.33222}",171,0,0,0,Potong Pasir,1563867888000,5,,,,,1,2,4.0,False,0,to: PIE (Changi Airport),JAM_HEAVY_TRAFFIC,JAM,bbcf8bc3-08fb-3a87-b093-44251fbfa18d,"world,103.862766,1.33222,bbcf8bc3-08fb-3a87-b093-44251fbfa18d,1642066620",2019-07-23 07:44:48,103.862766,1.33222,0,0,0,POINT (103.862766 1.33222)
144,MacPherson,1,SN,alert-1648102178/65398e8a-a74d-391b-a007-3cb8f1502319,,,False,False,"{'x': 103.870466, 'y': 1.328319}",247,0,0,3,,1563846250000,9,andy9969,ufmnew1,UFM 100.3,,52,4,2.0,False,0,MacPherson Rd,HAZARD_ON_ROAD_CONSTRUCTION,HAZARD,65398e8a-a74d-391b-a007-3cb8f1502319,"world,103.870466,1.328319,65398e8a-a74d-391b-a007-3cb8f1502319,1648102178",2019-07-23 01:44:10,103.870466,1.328319,3,0,3,POINT (103.870466 1.328319)
145,Novena,0,SN,alert-1650193209/39640457-f287-3762-9bc1-70fccc0e1739,,,False,False,"{'x': 103.843084, 'y': 1.319754}",322,0,0,1,,1563863313000,6,,,,,50,5,2.0,False,0,Thomson Rd,HAZARD_ON_ROAD_CONSTRUCTION,HAZARD,39640457-f287-3762-9bc1-70fccc0e1739,"world,103.843084,1.319754,39640457-f287-3762-9bc1-70fccc0e1739,1650193209",2019-07-23 06:28:33,103.843084,1.319754,1,0,1,POINT (103.843084 1.319754)
146,Kallang,0,SN,alert-1648524548/e6c2f569-fbbd-3aa4-a1f1-4a0111dca0ed,,,False,False,"{'x': 103.861907, 'y': 1.319985}",38,0,0,0,,1563868247000,5,zayo123,,,,24,4,2.0,False,0,Serangoon Road,JAM_STAND_STILL_TRAFFIC,JAM,e6c2f569-fbbd-3aa4-a1f1-4a0111dca0ed,"world,103.861907,1.319985,e6c2f569-fbbd-3aa4-a1f1-4a0111dca0ed,1648524548",2019-07-23 07:50:47,103.861907,1.319985,0,0,0,POINT (103.861907 1.319985)
147,Toa Payoh,0,SN,alert-1652223367/7960ed15-5003-3825-b8e6-70319edda248,,,False,False,"{'x': 103.850859, 'y': 1.339408}",243,0,0,0,,1563863938000,5,,,,,50,3,1.0,False,0,,HAZARD_ON_ROAD_CONSTRUCTION,HAZARD,7960ed15-5003-3825-b8e6-70319edda248,"world,103.850859,1.339408,7960ed15-5003-3825-b8e6-70319edda248,1652223367",2019-07-23 06:38:58,103.850859,1.339408,0,0,0,POINT (103.850859 1.339408)
148,Kallang,2,SN,alert-1648102358/b0f418c0-e36b-3c2c-a988-43a40c37bb97,,,False,False,"{'x': 103.881436, 'y': 1.322544}",172,0,0,5,,1563847054000,10,andy9969,ufmnew1,UFM 100.3,,52,4,2.0,False,0,Aljunied Rd,HAZARD_ON_ROAD_CONSTRUCTION,HAZARD,b0f418c0-e36b-3c2c-a988-43a40c37bb97,"world,103.881436,1.322544,b0f418c0-e36b-3c2c-a988-43a40c37bb97,1648102358",2019-07-23 01:57:34,103.881436,1.322544,5,0,5,POINT (103.881436 1.322544)
149,Kallang,0,SN,alert-1652164587/8df7ce08-7b6f-3439-a79f-99b342bda656,,,False,False,"{'x': 103.864778, 'y': 1.323625}",37,0,0,0,,1563868399000,5,zayo123,,,,24,4,2.0,False,0,Serangoon Road,JAM_HEAVY_TRAFFIC,JAM,8df7ce08-7b6f-3439-a79f-99b342bda656,"world,103.864778,1.323625,8df7ce08-7b6f-3439-a79f-99b342bda656,1652164587",2019-07-23 07:53:19,103.864778,1.323625,0,0,0,POINT (103.864778 1.323625)
150,Kallang,5,SN,alert-1637140342/60a1a084-4118-353f-a8ff-b9c9ee49e037,,,False,False,"{'x': 103.867121, 'y': 1.318386}",238,1,0,15,,1563848060000,10,DragonY111,,,,16,2,2.0,False,0,Kallang Bahru,HAZARD_ON_ROAD_CONSTRUCTION,HAZARD,60a1a084-4118-353f-a8ff-b9c9ee49e037,"world,103.867121,1.318386,60a1a084-4118-353f-a8ff-b9c9ee49e037,1637140342",2019-07-23 02:14:20,103.867121,1.318386,15,1,16,POINT (103.867121 1.318386)
151,Kallang,0,SN,alert-1642424600/5ed6fea1-80c3-3c5c-ac66-f63096bd5ffa,,,False,False,"{'x': 103.866128, 'y': 1.325325}",38,0,0,0,,1563868458000,5,zayo123,,,,24,4,2.0,False,0,Serangoon Road,JAM_HEAVY_TRAFFIC,JAM,5ed6fea1-80c3-3c5c-ac66-f63096bd5ffa,"world,103.866128,1.325325,5ed6fea1-80c3-3c5c-ac66-f63096bd5ffa,1642424600",2019-07-23 07:54:18,103.866128,1.325325,0,0,0,POINT (103.866128 1.325325)
152,,0,SN,alert-1637184612/7f95d220-3dd5-3bcf-bce7-0bab5416037a,,,False,False,"{'x': 103.867046, 'y': 1.326508}",36,0,0,0,Bendemeer,1563868510000,5,zayo123,,,,24,4,2.0,False,0,to: PIE / CTE,JAM_HEAVY_TRAFFIC,JAM,7f95d220-3dd5-3bcf-bce7-0bab5416037a,"world,103.867046,1.326508,7f95d220-3dd5-3bcf-bce7-0bab5416037a,1637184612",2019-07-23 07:55:10,103.867046,1.326508,0,0,0,POINT (103.867046 1.326508)
153,Kallang,1,SN,alert-1653703604/c6eb6e5f-efc4-3559-a67d-fe8b773c2218,,,False,False,"{'x': 103.880544, 'y': 1.323867}",71,0,0,3,,1563854104000,9,,,,,1,3,1.0,False,0,Kallang Way,HAZARD_ON_ROAD_CONSTRUCTION,HAZARD,c6eb6e5f-efc4-3559-a67d-fe8b773c2218,"world,103.880544,1.323867,c6eb6e5f-efc4-3559-a67d-fe8b773c2218,1653703604",2019-07-23 03:55:04,103.880544,1.323867,3,0,3,POINT (103.880544 1.323867)
154,MacPherson,0,SN,alert-1637499582/0b9581e5-a078-397f-8610-13e7a492a97c,,,False,False,"{'x': 103.876475, 'y': 1.331283}",342,0,0,1,,1563844045000,6,andy9969,ufmnew1,UFM 100.3,,52,4,1.0,False,0,Mulberry Ave,HAZARD_ON_ROAD_CONSTRUCTION,HAZARD,0b9581e5-a078-397f-8610-13e7a492a97c,"world,103.876475,1.331283,0b9581e5-a078-397f-8610-13e7a492a97c,1637499582",2019-07-23 01:07:25,103.876475,1.331283,1,0,1,POINT (103.876475 1.331283)
155,Serangoon,3,SN,alert-1654160735/86049c5d-3386-31eb-ac49-60d9badc4f35,,,False,False,"{'x': 103.864239, 'y': 1.35369}",10,0,0,6,,1563849381000,10,Trawkram,,,Resurfacing road..good luck!!,53,1,1.0,False,0,Lorong Chuan,HAZARD_ON_ROAD_CONSTRUCTION,HAZARD,86049c5d-3386-31eb-ac49-60d9badc4f35,"world,103.864239,1.35369,86049c5d-3386-31eb-ac49-60d9badc4f35,1654160735",2019-07-23 02:36:21,103.864239,1.35369,6,0,6,POINT (103.864239 1.35369)
156,Serangoon,1,SN,alert-1645206119/b2f4fb5d-da42-34bc-92f2-7f7a40b79845,,,False,False,"{'x': 103.881536, 'y': 1.356815}",47,0,0,3,,1563866065000,8,HappyHappyBeepBeep,kiss,Kiss 92,,49,3,2.0,False,0,Upper Serangoon Rd,HAZARD_ON_ROAD_CONSTRUCTION,HAZARD,b2f4fb5d-da42-34bc-92f2-7f7a40b79845,"world,103.881536,1.356815,b2f4fb5d-da42-34bc-92f2-7f7a40b79845,1645206119",2019-07-23 07:14:25,103.881536,1.356815,3,0,3,POINT (103.881536 1.356815)
157,Bishan,0,SN,alert-1653802147/84bdf7b6-1578-3536-b567-036e40ddc471,,,False,False,"{'x': 103.848977, 'y': 1.353506}",102,0,0,1,,1563850369000,6,DragonY111,,,,16,2,,False,0,Bishan St 14,HAZARD_ON_ROAD_CONSTRUCTION,HAZARD,84bdf7b6-1578-3536-b567-036e40ddc471,"world,103.848977,1.353506,84bdf7b6-1578-3536-b567-036e40ddc471,1653802147",2019-07-23 02:52:49,103.848977,1.353506,1,0,1,POINT (103.848977 1.353506)
158,Hougang,0,SN,alert-1658254845/e769b09c-bd5c-3343-9f83-90dd0664537d,,,False,False,"{'x': 103.885066, 'y': 1.357648}",66,0,0,0,,1563866288000,5,HappyHappyBeepBeep,kiss,Kiss 92,,46,3,1.0,False,0,Hougang St 21,HAZARD_ON_ROAD_CONSTRUCTION,HAZARD,e769b09c-bd5c-3343-9f83-90dd0664537d,"world,103.885066,1.357648,e769b09c-bd5c-3343-9f83-90dd0664537d,1658254845",2019-07-23 07:18:08,103.885066,1.357648,0,0,0,POINT (103.885066 1.357648)
159,Bishan,1,SN,alert-1654300455/699d9040-0813-35a8-af46-6595f971d979,,,False,False,"{'x': 103.846436, 'y': 1.355801}",353,0,0,2,,1563850662000,7,Szczesly,,,,58,3,1.0,False,0,Bishan St 22,HAZARD_ON_ROAD_CONSTRUCTION,HAZARD,699d9040-0813-35a8-af46-6595f971d979,"world,103.846436,1.355801,699d9040-0813-35a8-af46-6595f971d979,1654300455",2019-07-23 02:57:42,103.846436,1.355801,2,0,2,POINT (103.846436 1.355801)
160,Bishan,1,SN,alert-1646164549/f1150d42-0830-3a64-a3f9-f5c832bcb44d,,,False,False,"{'x': 103.847939, 'y': 1.351534}",12,0,0,2,,1563867536000,7,,,,,8,3,2.0,False,0,Bishan Rd,HAZARD_ON_ROAD_CAR_STOPPED,HAZARD,f1150d42-0830-3a64-a3f9-f5c832bcb44d,"world,103.847939,1.351534,f1150d42-0830-3a64-a3f9-f5c832bcb44d,1646164549",2019-07-23 07:38:56,103.847939,1.351534,2,0,2,POINT (103.847939 1.351534)
161,,1,SN,alert-1635761053/2fe47615-d81e-3844-9a6d-26b135b17838,50e1c528-055a-44ce-bf02-49ad07614513,https://s3.amazonaws.com/waze.photos/50e1c528-055a-44ce-bf02-49ad07614513,False,False,"{'x': 103.870504, 'y': 1.343342}",5,0,1,2,Woodleigh,1563851669000,7,,,,,34,0,2.0,False,0,Upper Serangoon Road,HAZARD_ON_ROAD_CONSTRUCTION,HAZARD,2fe47615-d81e-3844-9a6d-26b135b17838,"world,103.870504,1.343342,2fe47615-d81e-3844-9a6d-26b135b17838,1635761053",2019-07-23 03:14:29,103.870504,1.343342,2,0,2,POINT (103.870504 1.343342)
162,Serangoon,2,SN,alert-1641144540/255d7d50-7a9d-3509-801a-abae40d099ac,,,False,False,"{'x': 103.872591, 'y': 1.355734}",268,0,0,4,,1563859435000,9,,,,,10,4,2.0,False,0,Boundary Rd,HAZARD_ON_ROAD_CONSTRUCTION,HAZARD,255d7d50-7a9d-3509-801a-abae40d099ac,"world,103.872591,1.355734,255d7d50-7a9d-3509-801a-abae40d099ac,1641144540",2019-07-23 05:23:55,103.872591,1.355734,4,0,4,POINT (103.872591 1.355734)
163,Serangoon,0,SN,alert-1652825715/5bdb4e7e-a99f-3112-9c8f-a376b6ce4c6f,,,False,False,"{'x': 103.86506, 'y': 1.354071}",238,0,0,1,,1563861347000,6,,,,,24,5,2.0,False,0,Lorong Chuan,HAZARD_ON_ROAD_CONSTRUCTION,HAZARD,5bdb4e7e-a99f-3112-9c8f-a376b6ce4c6f,"world,103.86506,1.354071,5bdb4e7e-a99f-3112-9c8f-a376b6ce4c6f,1652825715",2019-07-23 05:55:47,103.86506,1.354071,1,0,1,POINT (103.86506 1.354071)
164,Serangoon,0,SN,alert-1646593290/151db050-7505-3007-b789-a672997c9ad9,,,False,False,"{'x': 103.873053, 'y': 1.355713}",286,0,0,1,,1563864024000,6,,,,,10,4,2.0,False,0,Boundary Rd,HAZARD_ON_ROAD_CONSTRUCTION,HAZARD,151db050-7505-3007-b789-a672997c9ad9,"world,103.873053,1.355713,151db050-7505-3007-b789-a672997c9ad9,1646593290",2019-07-23 06:40:24,103.873053,1.355713,1,0,1,POINT (103.873053 1.355713)
165,Serangoon,1,SN,alert-1655062354/cfcba8fd-61b5-38b1-9c24-950378f10a83,,,False,False,"{'x': 103.864629, 'y': 1.354065}",252,0,0,3,,1563848552000,8,,,,,1,3,2.0,False,0,Lorong Chuan,HAZARD_ON_ROAD_CONSTRUCTION,HAZARD,cfcba8fd-61b5-38b1-9c24-950378f10a83,"world,103.864629,1.354065,cfcba8fd-61b5-38b1-9c24-950378f10a83,1655062354",2019-07-23 02:22:32,103.864629,1.354065,3,0,3,POINT (103.864629 1.354065)
166,Ang Mo Kio,0,SN,alert-1641354712/eff0e743-0816-330c-84f1-f4c7dc510db3,,,False,False,"{'x': 103.844946, 'y': 1.375207}",172,0,0,1,,1563866114000,7,,,,,8,3,2.0,False,0,Ang Mo Kio Ave 6,HAZARD_ON_ROAD_CONSTRUCTION,HAZARD,eff0e743-0816-330c-84f1-f4c7dc510db3,"world,103.844946,1.375207,eff0e743-0816-330c-84f1-f4c7dc510db3,1641354712",2019-07-23 07:15:14,103.844946,1.375207,1,0,1,POINT (103.844946 1.375207)
167,Serangoon,0,SN,alert-1633466323/21d6510a-6b0b-3a3e-94ba-631420460a5c,,,False,False,"{'x': 103.872026, 'y': 1.375261}",274,0,0,0,,1563866167000,6,james_sg_4G,,,,49,4,1.0,False,0,Serangoon North Ave 5,HAZARD_ON_ROAD_CONSTRUCTION,HAZARD,21d6510a-6b0b-3a3e-94ba-631420460a5c,"world,103.872026,1.375261,21d6510a-6b0b-3a3e-94ba-631420460a5c,1633466323",2019-07-23 07:16:07,103.872026,1.375261,0,0,0,POINT (103.872026 1.375261)
168,Seletar,0,SN,alert-1656533337/bbea3191-15ea-3ab2-b4fe-567975811d17,,,False,False,"{'x': 103.880644, 'y': 1.401533}",93,0,0,0,,1563867965000,5,,,,,10,1,,False,0,to: TPE (PIE),JAM_HEAVY_TRAFFIC,JAM,bbea3191-15ea-3ab2-b4fe-567975811d17,"world,103.880644,1.401533,bbea3191-15ea-3ab2-b4fe-567975811d17,1656533337",2019-07-23 07:46:05,103.880644,1.401533,0,0,0,POINT (103.880644 1.401533)
169,Ang Mo Kio,0,SN,alert-1645206569/04655c09-09e5-3323-afaf-6463950f2a0f,,,False,False,"{'x': 103.862265, 'y': 1.369834}",253,0,0,0,,1563868262000,5,danielnzx,,,,46,3,2.0,False,0,Ang Mo Kio Ave 3,HAZARD_ON_ROAD_CONSTRUCTION,HAZARD,04655c09-09e5-3323-afaf-6463950f2a0f,"world,103.862265,1.369834,04655c09-09e5-3323-afaf-6463950f2a0f,1645206569",2019-07-23 07:51:02,103.862265,1.369834,0,0,0,POINT (103.862265 1.369834)
170,Ang Mo Kio,1,SN,alert-1653803546/3678225e-d1af-39a9-903f-99494b65489e,,,False,False,"{'x': 103.842989, 'y': 1.377284}",266,0,0,3,,1563854655000,9,,,,,1,1,2.0,False,0,Ang Mo Kio Ave 5,HAZARD_ON_ROAD_CONSTRUCTION,HAZARD,3678225e-d1af-39a9-903f-99494b65489e,"world,103.842989,1.377284,3678225e-d1af-39a9-903f-99494b65489e,1653803546",2019-07-23 04:04:15,103.842989,1.377284,3,0,3,POINT (103.842989 1.377284)
171,Sengkang,0,SN,alert-1654143936/e44ca936-b6e7-3dc7-a579-d9535fd9c89c,,,False,False,"{'x': 103.875911, 'y': 1.394559}",348,0,0,0,,1563856174000,6,,,,,51,3,1.0,False,0,Fernvale Rd,HAZARD_ON_ROAD_CONSTRUCTION,HAZARD,e44ca936-b6e7-3dc7-a579-d9535fd9c89c,"world,103.875911,1.394559,e44ca936-b6e7-3dc7-a579-d9535fd9c89c,1654143936",2019-07-23 04:29:34,103.875911,1.394559,0,0,0,POINT (103.875911 1.394559)
172,Ang Mo Kio,0,SN,alert-1652008297/445c2362-fd6a-3ded-9a3f-2cb3e1a8ce93,,,False,False,"{'x': 103.841017, 'y': 1.383639}",244,0,0,0,,1563845954000,5,,,,,24,4,1.0,False,0,Ang Mo Kio Ave 9,HAZARD_ON_ROAD_CONSTRUCTION,HAZARD,445c2362-fd6a-3ded-9a3f-2cb3e1a8ce93,"world,103.841017,1.383639,445c2362-fd6a-3ded-9a3f-2cb3e1a8ce93,1652008297",2019-07-23 01:39:14,103.841017,1.383639,0,0,0,POINT (103.841017 1.383639)
173,Ang Mo Kio,5,SN,alert-1637139962/f50c9198-634c-3ddd-b5eb-b9392596fd27,,,False,False,"{'x': 103.844603, 'y': 1.367093}",216,1,0,10,,1563846173000,10,,,,,11,2,2.0,False,0,Ang Mo Kio Ave 6,HAZARD_ON_ROAD_CONSTRUCTION,HAZARD,f50c9198-634c-3ddd-b5eb-b9392596fd27,"world,103.844603,1.367093,f50c9198-634c-3ddd-b5eb-b9392596fd27,1637139962",2019-07-23 01:42:53,103.844603,1.367093,10,1,11,POINT (103.844603 1.367093)
174,Sengkang,2,SN,alert-1646159859/664745fd-c158-3a4f-ab07-fdb7e560d82a,,,False,False,"{'x': 103.875659, 'y': 1.39497}",78,0,0,5,,1563846229000,10,,,,,49,1,2.0,False,0,Sengkang West Way,HAZARD_ON_ROAD_CONSTRUCTION,HAZARD,664745fd-c158-3a4f-ab07-fdb7e560d82a,"world,103.875659,1.39497,664745fd-c158-3a4f-ab07-fdb7e560d82a,1646159859",2019-07-23 01:43:49,103.875659,1.39497,5,0,5,POINT (103.875659 1.39497)
175,Sengkang,0,SN,alert-1658955744/baae05ed-d96d-359e-addc-404d1f352513,,,False,False,"{'x': 103.871459, 'y': 1.395158}",276,0,0,2,,1563856619000,8,,,,,51,3,2.0,False,0,Sengkang West Way,HAZARD_ON_ROAD_CONSTRUCTION,HAZARD,baae05ed-d96d-359e-addc-404d1f352513,"world,103.871459,1.395158,baae05ed-d96d-359e-addc-404d1f352513,1658955744",2019-07-23 04:36:59,103.871459,1.395158,2,0,2,POINT (103.871459 1.395158)
176,Ang Mo Kio,0,SN,alert-1633462093/07a901a3-e4f9-386c-bcab-ef8e6b18ce86,,,False,False,"{'x': 103.839366, 'y': 1.37709}",272,0,0,1,,1563846899000,6,ElectricKona,,,,49,4,2.0,False,0,Ang Mo Kio Ave 5,HAZARD_ON_ROAD_CONSTRUCTION,HAZARD,07a901a3-e4f9-386c-bcab-ef8e6b18ce86,"world,103.839366,1.37709,07a901a3-e4f9-386c-bcab-ef8e6b18ce86,1633462093",2019-07-23 01:54:59,103.839366,1.37709,1,0,1,POINT (103.839366 1.37709)
177,Ang Mo Kio,0,SN,alert-1636142032/cb265e09-4163-324f-90ef-703b30d845e6,,,False,False,"{'x': 103.834791, 'y': 1.380198}",325,0,0,1,,1563847842000,6,,,,,49,3,2.0,False,0,Ang Mo Kio Ave 5,HAZARD_ON_ROAD_CONSTRUCTION,HAZARD,cb265e09-4163-324f-90ef-703b30d845e6,"world,103.834791,1.380198,cb265e09-4163-324f-90ef-703b30d845e6,1636142032",2019-07-23 02:10:42,103.834791,1.380198,1,0,1,POINT (103.834791 1.380198)
178,Ang Mo Kio,0,SN,alert-1653162036/31fe1160-0dbf-318e-a759-5a4ecdc4d48c,,,False,False,"{'x': 103.834378, 'y': 1.381086}",62,0,0,0,,1563847859000,5,,,,,49,3,2.0,False,0,Yio Chu Kang Rd,HAZARD_ON_ROAD_CONSTRUCTION,HAZARD,31fe1160-0dbf-318e-a759-5a4ecdc4d48c,"world,103.834378,1.381086,31fe1160-0dbf-318e-a759-5a4ecdc4d48c,1653162036",2019-07-23 02:10:59,103.834378,1.381086,0,0,0,POINT (103.834378 1.381086)
179,Ang Mo Kio,2,SN,alert-1647302058/a5aa231e-93a8-3344-a5ee-a75b4450b4ce,,,False,False,"{'x': 103.840634, 'y': 1.387039}",52,0,0,5,,1563847920000,10,,,,,49,3,2.0,False,0,Yio Chu Kang Rd,HAZARD_ON_ROAD_CONSTRUCTION,HAZARD,a5aa231e-93a8-3344-a5ee-a75b4450b4ce,"world,103.840634,1.387039,a5aa231e-93a8-3344-a5ee-a75b4450b4ce,1647302058",2019-07-23 02:12:00,103.840634,1.387039,5,0,5,POINT (103.840634 1.387039)
180,Yio Chu Kang,2,SN,alert-1652104676/40f18c36-49bd-307e-aad5-5902def2ba17,,,False,False,"{'x': 103.828665, 'y': 1.398546}",337,0,0,6,,1563858815000,10,,,,,10,3,2.0,False,0,Lentor Ave,HAZARD_ON_ROAD_CONSTRUCTION,HAZARD,40f18c36-49bd-307e-aad5-5902def2ba17,"world,103.828665,1.398546,40f18c36-49bd-307e-aad5-5902def2ba17,1652104676",2019-07-23 05:13:35,103.828665,1.398546,6,0,6,POINT (103.828665 1.398546)
181,Ang Mo Kio,0,SN,alert-1637503382/88ae355c-ddf6-3475-bac7-093d97a97166,,,False,False,"{'x': 103.843397, 'y': 1.383339}",340,0,0,0,,1563861776000,5,,,,,50,2,2.0,False,0,Ang Mo Kio Ave 6,HAZARD_ON_ROAD_CONSTRUCTION,HAZARD,88ae355c-ddf6-3475-bac7-093d97a97166,"world,103.843397,1.383339,88ae355c-ddf6-3475-bac7-093d97a97166,1637503382",2019-07-23 06:02:56,103.843397,1.383339,0,0,0,POINT (103.843397 1.383339)
182,Thomson,0,SN,alert-1634442523/52d77d84-1e4a-389e-bbb5-1e868d5a61dd,,,False,False,"{'x': 103.818502, 'y': 1.392406}",12,0,0,0,,1563850164000,5,,,,,49,2,2.0,False,0,Upp Thomson Rd,HAZARD_ON_ROAD_CONSTRUCTION,HAZARD,52d77d84-1e4a-389e-bbb5-1e868d5a61dd,"world,103.818502,1.392406,52d77d84-1e4a-389e-bbb5-1e868d5a61dd,1634442523",2019-07-23 02:49:24,103.818502,1.392406,0,0,0,POINT (103.818502 1.392406)
183,,5,SN,alert-1650173329/d171d662-94d1-3201-a030-3ab71922a0ec,,,False,False,"{'x': 103.834889, 'y': 1.39403}",231,0,0,17,Upper Thomson,1563864210000,10,,,,,24,3,4.0,False,0,Exit 3: Lentor Ave (Yishun),,ACCIDENT,d171d662-94d1-3201-a030-3ab71922a0ec,"world,103.834889,1.39403,d171d662-94d1-3201-a030-3ab71922a0ec,1650173329",2019-07-23 06:43:30,103.834889,1.39403,17,0,17,POINT (103.834889 1.39403)
184,Seletar,0,SN,alert-1640620861/8b049168-8ca4-3491-8627-d971dafc2be5,,,False,False,"{'x': 103.873097, 'y': 1.398029}",343,0,0,0,,1563850731000,5,Ashton7588,,,,0,0,1.0,False,0,Jln Kayu,HAZARD_ON_ROAD_CONSTRUCTION,HAZARD,8b049168-8ca4-3491-8627-d971dafc2be5,"world,103.873097,1.398029,8b049168-8ca4-3491-8627-d971dafc2be5,1640620861",2019-07-23 02:58:51,103.873097,1.398029,0,0,0,POINT (103.873097 1.398029)
185,Hougang,0,SN,alert-1652892778/ef861e4a-bd69-3b39-9c89-6365b9b3c2b9,,,False,False,"{'x': 103.886709, 'y': 1.371606}",285,0,0,0,,1563864634000,5,RenZheMao,,,,46,4,,False,0,Hougang Ave 4,HAZARD_ON_ROAD_CONSTRUCTION,HAZARD,ef861e4a-bd69-3b39-9c89-6365b9b3c2b9,"world,103.886709,1.371606,ef861e4a-bd69-3b39-9c89-6365b9b3c2b9,1652892778",2019-07-23 06:50:34,103.886709,1.371606,0,0,0,POINT (103.886709 1.371606)
186,Ang Mo Kio,0,SN,alert-1649923117/dc4676f8-7048-3ae2-915b-6fb7d4fb6f55,,,False,False,"{'x': 103.843003, 'y': 1.384357}",338,0,0,1,,1563851948000,7,TokBusuPeaceful,,,,11,3,2.0,False,0,Ang Mo Kio Ave 6,HAZARD_ON_ROAD_CONSTRUCTION,HAZARD,dc4676f8-7048-3ae2-915b-6fb7d4fb6f55,"world,103.843003,1.384357,dc4676f8-7048-3ae2-915b-6fb7d4fb6f55,1649923117",2019-07-23 03:19:08,103.843003,1.384357,1,0,1,POINT (103.843003 1.384357)
187,Ang Mo Kio,1,SN,alert-1646203128/f1587a1d-e8b2-3e0e-b74d-4433d2f2d0dd,,,False,False,"{'x': 103.841776, 'y': 1.387376}",338,0,0,3,,1563851979000,8,TokBusuPeaceful,,,,11,3,2.0,False,0,Ang Mo Kio Ave 6,HAZARD_ON_ROAD_CONSTRUCTION,HAZARD,f1587a1d-e8b2-3e0e-b74d-4433d2f2d0dd,"world,103.841776,1.387376,f1587a1d-e8b2-3e0e-b74d-4433d2f2d0dd,1646203128",2019-07-23 03:19:39,103.841776,1.387376,3,0,3,POINT (103.841776 1.387376)
188,Geylang,2,SN,alert-1653642186/86ebac69-4dd5-3b2a-bc29-ae68be5e3337,,,False,False,"{'x': 103.892067, 'y': 1.314231}",8,0,0,4,,1563847610000,9,JasonJayjChow,kiss,Kiss 92,,50,5,2.0,False,0,Guillemard Rd,HAZARD_ON_ROAD_CONSTRUCTION,HAZARD,86ebac69-4dd5-3b2a-bc29-ae68be5e3337,"world,103.892067,1.314231,86ebac69-4dd5-3b2a-bc29-ae68be5e3337,1653642186",2019-07-23 02:06:50,103.892067,1.314231,4,0,4,POINT (103.892067 1.314231)
189,Paya Lebar,2,SN,alert-1652420427/50a4c154-a834-333c-bff0-8362784372c6,,,False,False,"{'x': 103.90505, 'y': 1.318319}",176,1,0,4,,1563847921000,10,,,,,1,3,2.0,False,0,Jln Eunos,HAZARD_ON_ROAD_CONSTRUCTION,HAZARD,50a4c154-a834-333c-bff0-8362784372c6,"world,103.90505,1.318319,50a4c154-a834-333c-bff0-8362784372c6,1652420427",2019-07-23 02:12:01,103.90505,1.318319,4,1,5,POINT (103.90505 1.318319)
190,Katong,2,SN,alert-1638734803/82b85d5a-293f-397f-a8fc-db23196a259d,,,False,False,"{'x': 103.894166, 'y': 1.313318}",178,0,0,5,,1563852208000,10,RatBergNinja,,,,47,2,2.0,False,0,Tanjong Katong Rd,HAZARD_ON_ROAD_CONSTRUCTION,HAZARD,82b85d5a-293f-397f-a8fc-db23196a259d,"world,103.894166,1.313318,82b85d5a-293f-397f-a8fc-db23196a259d,1638734803",2019-07-23 03:23:28,103.894166,1.313318,5,0,5,POINT (103.894166 1.313318)
191,Marine Parade,0,SN,alert-1650272889/baada171-4351-3370-97e5-7179d37d8956,,,False,False,"{'x': 103.89959, 'y': 1.316566}",259,0,0,1,,1563864561000,6,CaptainJawSpeady,,,,10,3,2.0,False,0,Changi Rd,HAZARD_ON_ROAD_CONSTRUCTION,HAZARD,baada171-4351-3370-97e5-7179d37d8956,"world,103.89959,1.316566,baada171-4351-3370-97e5-7179d37d8956,1650272889",2019-07-23 06:49:21,103.89959,1.316566,1,0,1,POINT (103.89959 1.316566)
192,Katong,1,SN,alert-1652366056/8f298f9b-6a53-3bf1-90da-d08aec0fc279,,,False,False,"{'x': 103.894181, 'y': 1.312522}",359,0,0,2,,1563864949000,7,james_sg_4G,,,,49,4,2.0,False,0,Tanjong Katong Rd,HAZARD_ON_ROAD_CONSTRUCTION,HAZARD,8f298f9b-6a53-3bf1-90da-d08aec0fc279,"world,103.894181,1.312522,8f298f9b-6a53-3bf1-90da-d08aec0fc279,1652366056",2019-07-23 06:55:49,103.894181,1.312522,2,0,2,POINT (103.894181 1.312522)
193,,0,SN,alert-1644578741/0cf8fbb3-2991-3c89-a3e1-f4305d141c9c,,,False,False,"{'x': 103.910573, 'y': 1.301654}",75,0,0,0,Marine Parade,1563868798000,5,,,,,1,1,,False,0,ECP (Changi Airport),JAM_HEAVY_TRAFFIC,JAM,0cf8fbb3-2991-3c89-a3e1-f4305d141c9c,"world,103.910573,1.301654,0cf8fbb3-2991-3c89-a3e1-f4305d141c9c,1644578741",2019-07-23 07:59:58,103.910573,1.301654,0,0,0,POINT (103.910573 1.301654)
194,Bedok,1,SN,alert-1654400166/7d64fba0-b440-3082-8692-1d3e17942109,,,False,False,"{'x': 103.926546, 'y': 1.32923}",353,1,0,1,,1563846502000,7,,,,,49,4,1.0,False,0,Bedok North Ave 1,HAZARD_ON_ROAD_CONSTRUCTION,HAZARD,7d64fba0-b440-3082-8692-1d3e17942109,"world,103.926546,1.32923,7d64fba0-b440-3082-8692-1d3e17942109,1654400166",2019-07-23 01:48:22,103.926546,1.32923,1,1,2,POINT (103.926546 1.32923)
195,Bedok,5,SN,alert-1640940231/73193a28-5a1f-3881-bf0f-953b85c7a54b,,,False,False,"{'x': 103.926736, 'y': 1.327728}",172,2,0,9,,1563849452000,10,ARYNANA77,,,,1,3,1.0,False,0,Bedok North Ave 1,HAZARD_ON_ROAD_CONSTRUCTION,HAZARD,73193a28-5a1f-3881-bf0f-953b85c7a54b,"world,103.926736,1.327728,73193a28-5a1f-3881-bf0f-953b85c7a54b,1640940231",2019-07-23 02:37:32,103.926736,1.327728,9,2,11,POINT (103.926736 1.327728)
196,Bedok,0,SN,alert-1653401925/2f3032b7-2352-3946-a840-d8a56d041b73,,,False,False,"{'x': 103.906157, 'y': 1.329607}",3,0,0,1,,1563846253000,6,,,,,24,3,1.0,False,0,Jln Eunos,HAZARD_ON_ROAD_CONSTRUCTION,HAZARD,2f3032b7-2352-3946-a840-d8a56d041b73,"world,103.906157,1.329607,2f3032b7-2352-3946-a840-d8a56d041b73,1653401925",2019-07-23 01:44:13,103.906157,1.329607,1,0,1,POINT (103.906157 1.329607)
197,Paya Lebar,0,SN,alert-1633463053/4cc3c5fd-68c5-3a1b-b2f3-cdf336047e6d,,,False,False,"{'x': 103.893152, 'y': 1.319526}",349,0,0,1,,1563851523000,7,,,,,50,4,1.0,False,0,Eunos Rd 8,HAZARD_ON_ROAD_CONSTRUCTION,HAZARD,4cc3c5fd-68c5-3a1b-b2f3-cdf336047e6d,"world,103.893152,1.319526,4cc3c5fd-68c5-3a1b-b2f3-cdf336047e6d,1633463053",2019-07-23 03:12:03,103.893152,1.319526,1,0,1,POINT (103.893152 1.319526)
198,Paya Lebar,5,SN,alert-1640143920/097f2d2a-de72-3cce-bcb8-404ce3e0c04e,,,False,False,"{'x': 103.905092, 'y': 1.320538}",186,2,0,10,,1563855276000,10,,,,,36,2,2.0,False,0,Jln Eunos,HAZARD_ON_ROAD_CONSTRUCTION,HAZARD,097f2d2a-de72-3cce-bcb8-404ce3e0c04e,"world,103.905092,1.320538,097f2d2a-de72-3cce-bcb8-404ce3e0c04e,1640143920",2019-07-23 04:14:36,103.905092,1.320538,10,2,12,POINT (103.905092 1.320538)
199,Paya Lebar,1,SN,alert-1653403954/05d8dc29-279b-3e6c-b9ba-f0e1bb6e0a07,,,False,False,"{'x': 103.905001, 'y': 1.31943}",184,0,0,2,,1563855435000,7,snail_paceLol,,,,36,2,2.0,False,0,Jln Eunos,HAZARD_ON_ROAD_CONSTRUCTION,HAZARD,05d8dc29-279b-3e6c-b9ba-f0e1bb6e0a07,"world,103.905001,1.31943,05d8dc29-279b-3e6c-b9ba-f0e1bb6e0a07,1653403954",2019-07-23 04:17:15,103.905001,1.31943,2,0,2,POINT (103.905001 1.31943)
